X,Y,施設名,施設名かな,施設名（施,所在地,地区名,TEL,FAX,詳細情報,開館時間,URL,バリアフリ,駐輪場 PC,駐輪場 携,大分類,小分類,カテゴリ,アイコン番,施設ID
135.4968777,34.67299803,大阪西労働基準監督署,おおさかにしろうどうきじゅんかんとくしょ,大阪西労働基準監督署（おおさかにしろうどうきじゅんかんとくしょ）,西区北堀江1-2-19,西区,06-6531-0801,,,,,,,,官公庁,国の機関,官公庁/国の機関,104,4799
135.4382107,34.61649383,軽自動車検査協会大阪主管事務所,けいじどうしゃけんさきょうかいおおさかしゅかんじむしょ,軽自動車検査協会大阪主管事務所（けいじどうしゃけんさきょうかいおおさかしゅかんじむしょ）,住之江区南港東3-4-62,住之江区,06-6612-1565,,　（軽自動車の登録・廃止等）,,,http://www.osaka-bfmap.jp/sisetu_data/data/201441.php?bunrui=1&name=20.php,,,官公庁,国の機関,官公庁/国の機関,104,158
135.4421918,34.61904397,大阪陸運支局なにわ自動車検査登録事務所,おおさかりくうんしきょくなにわじどうしゃけんさとうろくじむしょ,大阪陸運支局なにわ自動車検査登録事務所（おおさかりくうんしきょくなにわじどうしゃけんさとうろくじむしょ）,住之江区南港東3-1-14,住之江区,050-5540-2059,,　（普通自動車関係）,,,,,,官公庁,国の機関,官公庁/国の機関,104,157
135.4913887,34.61096411,住吉税務署,すみよしぜいむしょ,住吉税務署（すみよしぜいむしょ）,住吉区住吉2丁目17番37号,住吉区,06-6672-1321,,,,http://www.nta.go.jp/osaka/guide/zeimusho/osaka/sumiyoshi/index.htm,,,,官公庁,国の機関,官公庁/国の機関,106,381
135.4779921,34.62319189,玉出年金事務所,たまでねんきんじむしょ,玉出年金事務所（たまでねんきんじむしょ）,住之江区北加賀屋2-3-6,住之江区,06-6682-3311,,　（厚生年金・国民年金・社会保険）,,,,,,官公庁,国の機関,官公庁/国の機関,135,706
135.4924,34.62376406,大阪南労働基準監督署,おおさかみなみろうどうきじゅんかんとくしょ,大阪南労働基準監督署（おおさかみなみろうどうきじゅんかんとくしょ）,西成区玉出中2丁目13番27号,西成区,06-6653-5050,,,,,,,,官公庁,国の機関,官公庁/国の機関,122,4837
135.436236,34.63515803,大阪税関南港出張所,おおさかぜいかんなんこうしゅっちょうしょ,大阪税関南港出張所（おおさかぜいかんなんこうしゅっちょうしょ）,住之江区南港東7-1-41,住之江区,06-6614-5345,,　（輸出入貨物の通関手続き相談）,,,,,,官公庁,国の機関,官公庁/国の機関,106,660
135.4304971,34.65339389,大阪海上保安監部,おおさかかいじょうほあんかんぶ,大阪海上保安監部（おおさかかいじょうほあんかんぶ）,港区築港4-10-3,港区,06-6571-0221,,,,http://www.kaiho.mlit.go.jp/05kanku/osaka/,,,,官公庁,国の機関,官公庁/国の機関,104,2041
135.4343078,34.65214392,大阪港労働公共職業安定所,おおさかみなとろうどうこうきょうしょくぎょうあんていじょ,大阪港労働公共職業安定所（おおさかみなとろうどうこうきょうしょくぎょうあんていじょ）,港区築港1-12-18,港区,06-6572-5191,,,,,,,,官公庁,国の機関,官公庁/国の機関,111,2025
135.4305247,34.65329414,大阪検疫所,おおさかけんえきじょ,大阪検疫所（おおさかけんえきじょ）,港区築港4-10-3,港区,06-6571-3521,,,,http://www.forth.go.jp/keneki/osaka/index.html,,,,官公庁,国の機関,官公庁/国の機関,104,2042
135.4305779,34.65320286,大阪税関,おおさかぜいかん,大阪税関（おおさかぜいかん）,港区築港4-10-3,港区,06-6576-3010,,,,,,,,官公庁,国の機関,官公庁/国の機関,106,2043
135.4930529,34.63348908,西成税務署,にしなりぜいむしょ,西成税務署（にしなりぜいむしょ）,西成区千本中1丁目3番4号,西成区,06-6659-5131,,,,http://www.nta.go.jp/osaka/guide/zeimusho/osaka/nishinari/,,,,官公庁,国の機関,官公庁/国の機関,106,4851
135.5194721,34.63927189,阿倍野税務署,あべのぜいむしょ,阿倍野税務署（あべのぜいむしょ）,阿倍野区三明町2-10-29,阿倍野区,06-6628-0221,,(国税全般),,http://www.osaka.nta.go.jp/guidance/osaka/11.html,,,,官公庁,国の機関,官公庁/国の機関,106,1202
135.5110349,34.64654897,阿倍野公共職業安定所（ハローワーク阿倍野）,あべのこうきょうしょくぎょうあんていしょ,阿倍野公共職業安定所（ハローワーク阿倍野）（あべのこうきょうしょくぎょうあんていしょ）,阿倍野区阿倍野筋1-5-1,阿倍野区,06-6631-1675,,,,http://osaka-rodo.go.jp/hw/abeno/,,,,官公庁,国の機関,官公庁/国の機関,111,1611
135.4992223,34.65881914,難波年金事務所,なんばねんきんじむしょ,難波年金事務所（なんばねんきんじむしょ）,浪速区敷津東1-6-16,浪速区,06-6633-1231,,,,http://www.sia.go.jp/sodan/madoguchi/shaho/osaka/index.htm,http://www.osaka-bfmap.jp/sisetu_data/data/101423.php?bunrui=1&name=10.php,,,官公庁,国の機関,官公庁/国の機関,135,2656
135.4997309,34.66004389,浪速税務署,なにわぜいむしょ,浪速税務署（なにわぜいむしょ）,浪速区難波中3-13-9,浪速区,06-6632-1131,,,,http://www.nta.go.jp/osaka/guide/zeimusho/osaka/naniwa/index.htm,,,,官公庁,国の機関,官公庁/国の機関,106,2630
135.5161998,34.64849703,天王寺年金事務所,てんのうじねんきんじむしょ,天王寺年金事務所（てんのうじねんきんじむしょ）,天王寺区悲田院町7-6,天王寺区,06-6772-7531,,,,,,,,官公庁,国の機関,官公庁/国の機関,135,4338
135.5149331,34.66099706,法務局天王寺出張所,ほうむきょくてんのうじしゅっちょうしょ,法務局天王寺出張所（ほうむきょくてんのうじしゅっちょうしょ）,天王寺区六万体町1-27,天王寺区,06-6772-2535,,土地・建物の登記,,,,,,官公庁,国の機関,官公庁/国の機関,105,4351
135.5253578,34.65964192,天王寺税務署,てんのうじぜいむしょ,天王寺税務署（てんのうじぜいむしょ）,天王寺区堂ヶ芝2-11-25,天王寺区,06-6772-1281,,,,http://www.nta.go.jp/osaka/guide/zeimusho/osaka/tennoji/index.htm,,,,官公庁,国の機関,官公庁/国の機関,106,4332
135.5468891,34.61075306,日本年金機構平野年金事務所,にほんねんきんきこうひらのねんきんじむしょ,日本年金機構平野年金事務所（にほんねんきんきこうひらのねんきんじむしょ）,平野区喜連西6-2-78,平野区,06-6705-0331,,,,,,,,官公庁,国の機関,官公庁/国の機関,104,2282
135.5423663,34.61842853,東住吉税務署,ひがしすみよしぜいむしょ,東住吉税務署（ひがしすみよしぜいむしょ）,平野区平野西2-2-2,平野区,06-6702-0001,,,,http://www.nta.go.jp/osaka/guide/zeimusho/osaka/higashisumiyoshi/data.htm,,,,官公庁,国の機関,官公庁/国の機関,106,2326
135.5334919,34.62563611,大阪法務局東住吉出張所,おおさかほうむきょくひがしすみよししゅっちょうしょ,大阪法務局東住吉出張所（おおさかほうむきょくひがしすみよししゅっちょうしょ）,東住吉区西今川3-21-17,東住吉区,06-6705-2212,,,,http://houmukyoku.moj.go.jp/osaka/frame.html,http://www.osaka-bfmap.jp/sisetu_data/data/221433.php?bunrui=1&name=22.php,,,官公庁,国の機関,官公庁/国の機関,105,3097
135.539606,34.65390303,生野税務署,いくのぜいむしょ,生野税務署（いくのぜいむしょ）,生野区勝山北5丁目22番14号,生野区,06-6717-1231,,,,http://www.nta.go.jp/osaka/guide/zeimusho/osaka/ikuno/index.htm,,,,官公庁,国の機関,官公庁/国の機関,106,4560
135.4545832,34.66403608,市岡社会保険事務所,いちおかしゃかいほけんじむしょ,市岡社会保険事務所（いちおかしゃかいほけんじむしょ）,港区磯路3-25-17,港区,06-6571-5031,,,,,,,,官公庁,国の機関,官公庁/国の機関,135,74
135.4549113,34.66420786,港税務署,みなとぜいむしょ,港税務署（みなとぜいむしょ）,港区磯路3-20-11,港区,06-6572-3901,,,,,,,,官公庁,国の機関,官公庁/国の機関,106,1961
135.4714643,34.66833617,大阪西公共職業安定所(ハローワーク大阪西),おおさかにしこうきょうしょくぎょうあんていじょ（はろーわーくにし）,大阪西公共職業安定所(ハローワーク大阪西)（おおさかにしこうきょうしょくぎょうあんていじょ（はろーわーくにし））,港区南市岡1-2-34,港区,06-6582-5271,,,,http://osaka-rodo.go.jp/hw/nishi/,,,,官公庁,国の機関,官公庁/国の機関,111,2063
135.4638309,34.68461906,西野田労働基準監督署,にしのだろうどうきじゅんかんとくしょ,西野田労働基準監督署（にしのだろうどうきじゅんかんとくしょ）,此花区西九条5-3-63,此花区,6462-8101,6462-8104,,,http://www.osaka-rodo.go.jp/kyoku/kantoku/kantoku.php,,,,官公庁,国の機関,官公庁/国の機関,122,1011
135.498942,34.66431094,難波公証役場,なんばこうしょうやくば,難波公証役場（なんばこうしょうやくば）,浪速区難波中1-10-4　南海野村ビル６階,浪速区,06-6633-3598,06-6643-5020,,,http://www.koshonin.gr.jp/map/3-005.html,,,,官公庁,国の機関,官公庁/国の機関,104,55
135.4881946,34.67500456,堀江年金事務所,ほりえねんきんじむしょ,堀江年金事務所（ほりえねんきんじむしょ）,西区北堀江3-10-1,西区,06-6531-5241,,,,,,,,官公庁,国の機関,官公庁/国の機関,104,4800
135.522706,34.66633317,上六公証役場,うえろくこうしょうやくば,上六公証役場（うえろくこうしょうやくば）,天王寺区東高津町11-9,天王寺区,06-6763-3649,,公正証書,,,,,,官公庁,国の機関,官公庁/国の機関,104,4326
135.5145282,34.67235306,南税務署,みなみぜいむしょ,南税務署（みなみぜいむしょ）,中央区谷町7-5-23,中央区,06-6768-4881,,(国税全般),,,,,,官公庁,国の機関,官公庁/国の機関,106,81
135.480235,34.68047089,西税務署,にしぜいむしょ,西税務署（にしぜいむしょ）,西区川口2-7-9,西区,06-6583-4624,,,,,,,,官公庁,国の機関,官公庁/国の機関,106,4797
135.4799109,34.69223894,大阪福島税務署,おおさかふくしまぜいむしょ,大阪福島税務署（おおさかふくしまぜいむしょ）,福島区玉川2-12-28,福島区,06-6448-1281,,,,http://www.nta.go.jp/osaka/guide/zeimusho/osaka/osakafukushima/index.htm,,,,官公庁,国の機関,官公庁/国の機関,106,3541
135.5139252,34.68110617,ハローワーク大阪東,はろーわーくおおさかひがし,ハローワーク大阪東（はろーわーくおおさかひがし）,中央区農人橋2-1-36,中央区,06-6942-4771,,,,http://osaka-rodo.go.jp/hw/higashi/,,,,官公庁,国の機関,官公庁/国の機関,111,1179
135.5061469,34.68130783,大手前年金事務所,おおてまえねんきんじむしょ,大手前年金事務所（おおてまえねんきんじむしょ）,中央区久太郎町2-1-30 船場ダイヤモンドビル6階〜8階,中央区,06-6271-7301,06-6261-8738,(社会保険・厚生年金等),,,http://www.osaka-bfmap.jp/sisetu_data/data/051422.php?bunrui=1&name=5.php,,,官公庁,国の機関,官公庁/国の機関,104,1178
135.5179939,34.68190286,近畿財務局,きんきざいむきょく,近畿財務局（きんきざいむきょく）,中央区大手前4-1-76 大阪合同庁舎4号館,中央区,06-6949-6390,,,,,,,,官公庁,国の機関,官公庁/国の機関,104,1183
135.5179919,34.682017,近畿運輸局,きんきうんゆきょく,近畿運輸局（きんきうんゆきょく）,中央区大手前4-1-76 大阪合同庁舎4号館,中央区,06-6949-6404,,,,,,,,官公庁,国の機関,官公庁/国の機関,104,1188
135.5179939,34.68178911,大阪管区気象台,おおさかかんくきしょうだい,大阪管区気象台（おおさかかんくきしょうだい）,中央区大手前4-1-76 大阪合同庁舎4号館,中央区,06-6949-6300,,,,,,,,官公庁,国の機関,官公庁/国の機関,104,1189
135.5189284,34.68184414,近畿管区行政評価局,きんきかんくぎょうせいひょうかきょく,近畿管区行政評価局（きんきかんくぎょうせいひょうかきょく）,中央区大手前4-1-67 大阪合同庁舎2号館,中央区,06-6941-3431,,,,http://www.soumu.go.jp/kanku/kinki.html,,,,官公庁,国の機関,官公庁/国の機関,104,1180
135.5189331,34.68173111,自衛隊大阪地方連絡部,じえいたいおおさかちほうれんらくぶ,自衛隊大阪地方連絡部（じえいたいおおさかちほうれんらくぶ）,中央区大手前4-1-67 大阪合同庁舎2号館,中央区,06-6942-0541,,,,,,,,官公庁,国の機関,官公庁/国の機関,104,1181
135.5189331,34.68194203,大阪労働局,おおさかろうどうきょく,大阪労働局（おおさかろうどうきょく）,中央区大手前4-1-67 大阪合同庁舎2号館,中央区,06-6949-6482,,,,,,,,官公庁,国の機関,官公庁/国の機関,104,1192
135.5191972,34.68287206,大阪家庭裁判所,おおさかかていさいばんしょ,大阪家庭裁判所（おおさかかていさいばんしょ）,中央区大手前4-1-13,中央区,06-6943-5321,,,,,,,,官公庁,国の機関,官公庁/国の機関,202,1194
135.5179218,34.68703303,大阪法務局,おおさかほうむきょく,大阪法務局（おおさかほうむきょく）,中央区谷町2-1-17,中央区,06-6942-1481,,(不動産登記),,http://houmukyoku.moj.go.jp/osaka/frame.html,http://www.osaka-bfmap.jp/sisetu_data/data/051431.php?bunrui=1&name=5.php,,,官公庁,国の機関,官公庁/国の機関,105,1177
135.5179083,34.68883311,東税務署,ひがしぜいむしょ,東税務署（ひがしぜいむしょ）,中央区大手前1-5-63 大阪合同庁舎3号館,中央区,06-6942-1101,,(国税全般),,,,,,官公庁,国の機関,官公庁/国の機関,106,1171
135.5179077,34.68902183,大阪国税局,おおさかこくぜいきょく,大阪国税局（おおさかこくぜいきょく）,中央区大手前1-5-63 大阪合同庁舎3号館,中央区,06-6941-5331,,,,,,,,官公庁,国の機関,官公庁/国の機関,106,1184
135.517911,34.68892803,大阪国税不服審判所,おおさかこくぜいふふくしんぱんしょ,大阪国税不服審判所（おおさかこくぜいふふくしんぱんしょ）,中央区大手前1-5-63 大阪合同庁舎3号館,中央区,06-6943-0370,,,,,,,,官公庁,国の機関,官公庁/国の機関,106,1185
135.5119532,34.68975789,郵便局株式会社　近畿支社,ゆうびんきょくかぶしきがいしゃ　きんきししゃ,郵便局株式会社　近畿支社（ゆうびんきょくかぶしきがいしゃ　きんきししゃ）,中央区北浜東3-9,中央区,06-6944-5420,,,,,,,,官公庁,国の機関,官公庁/国の機関,107,1190
135.5193387,34.68848597,近畿農政局大阪農政事務所,きんきのうせいきょくおおさかのうせいじむしょ,近畿農政局大阪農政事務所（きんきのうせいきょくおおさかのうせいじむしょ）,中央区大手前1-5-44 大阪合同庁舎1号館,中央区,06-6943-9691,,,,,,,,官公庁,国の機関,官公庁/国の機関,104,1186
135.519336,34.68856389,近畿地方整備局,きんきちほうせいびきょく,近畿地方整備局（きんきちほうせいびきょく）,中央区大手前1-5-44 大阪合同庁舎1号館,中央区,06-6942-1141,,,,,,,,官公庁,国の機関,官公庁/国の機関,104,1193
135.5193279,34.688719,近畿経済産業局,きんきけいざいさんぎょうきょく,近畿経済産業局（きんきけいざいさんぎょうきょく）,中央区大手前1-5-44 大阪合同庁舎1号館,中央区,06-6966-6000,,,,,,,,官公庁,国の機関,官公庁/国の機関,104,1187
135.5193333,34.68863592,近畿総合通信局,きんきそうごうつうしんきょく,近畿総合通信局（きんきそうごうつうしんきょく）,中央区大手前1-5-44 大阪合同庁舎1号館,中央区,06-6942-8504,,,,,,,,官公庁,国の機関,官公庁/国の機関,104,1191
135.4594671,34.71051686,西淀川税務署,にしよどがわぜいむしょ,西淀川税務署（にしよどがわぜいむしょ）,西淀川区野里3丁目3番3号,西淀川区,06-6472-1021,,,,http://www.nta.go.jp/osaka/guide/zeimusho/osaka/nishiyodogawa/index.htm,,,,官公庁,国の機関,官公庁/国の機関,106,3651
135.4903673,34.69455003,大阪中之島合同庁舎,おおさかなかのしまごうどうちょうしゃ,大阪中之島合同庁舎（おおさかなかのしまごうどうちょうしゃ）,福島区福島1-1-60,福島区,,,大阪検察庁,,,,,,官公庁,国の機関,官公庁/国の機関,104,4643
135.482333,34.69624989,福島年金事務所,ふくしまねんきんじむしょ,福島年金事務所（ふくしまねんきんじむしょ）,福島区福島8-12-6,福島区,06-6458-1855,06-6458-3838,,,http://www.sia.go.jp/sodan/madoguchi/shaho/osaka/osaka04.htm,http://www.osaka-bfmap.jp/sisetu_data/data/031421.php?bunrui=1&name=3.php,,,官公庁,国の機関,官公庁/国の機関,135,3568
135.5041109,34.69583111,大阪高等裁判所,おおさかこうとうさいばんしょ,大阪高等裁判所（おおさかこうとうさいばんしょ）,北区西天満2-1-10,北区,06-6363-1281,,,,,,,,官公庁,国の機関,官公庁/国の機関,202,280
135.5041331,34.69565792,大阪地方裁判所,おおさかちほうさいばんしょ,大阪地方裁判所（おおさかちほうさいばんしょ）,北区西天満2-1-10,北区,06-6363-1281,,,,,,,,官公庁,国の機関,官公庁/国の機関,202,281
135.5041439,34.69547511,大阪簡易裁判所,おおさかかんいさいばんしょ,大阪簡易裁判所（おおさかかんいさいばんしょ）,北区西天満2-1-10,北区,06-6363-1281,,,,,,,,官公庁,国の機関,官公庁/国の機関,202,282
135.4976828,34.69894194,ハローワーク梅田(梅田公共職業安定所),はろーわーくうめだ（うめだこうきょうしょくぎょうあんていしょ）,ハローワーク梅田(梅田公共職業安定所)（はろーわーくうめだ（うめだこうきょうしょくぎょうあんていしょ））,北区梅田１−２−２（大阪駅前第２ビル１６F）,北区,06-6344-8609,,,,http://osaka-rodo.go.jp/hw/umeda/,,,,官公庁,国の機関,官公庁/国の機関,111,287
135.5057858,34.69553606,大阪法務局北出張所,おおさかほうむきょくきたしゅっちょうじょ,大阪法務局北出張所（おおさかほうむきょくきたしゅっちょうじょ）,北区西天満1-11-4,北区,06-6363-1981,,,,,,,,官公庁,国の機関,官公庁/国の機関,105,283
135.5210217,34.69653314,造幣局,ぞうへいきょく,造幣局（ぞうへいきょく）,北区天満1-1-79,北区,06-6351-5361,,,,,,,,官公庁,国の機関,官公庁/国の機関,104,285
135.506533,34.70179383,北税務署,きたぜいむしょ,北税務署（きたぜいむしょ）,北区南扇町7-13,北区,06-6313-3371,,(国税全般),,http://www.nta.go.jp/osaka/guide/zeimusho/osaka/kita/index.htm,,,,官公庁,国の機関,官公庁/国の機関,106,276
135.5176139,34.70021411,天満労働基準監督署,てんまろうどうきじゅんかんとくしょ,天満労働基準監督署（てんまろうどうきじゅんかんとくしょ）,北区同心1-1-17,北区,06-6358-0261,,,,,,,,官公庁,国の機関,官公庁/国の機関,122,278
135.5133,34.70400017,天満社会保険事務所,てんましゃかいほけんじむしょ,天満社会保険事務所（てんましゃかいほけんじむしょ）,北区天神橋4-1-15,北区,06-6356-5511,,,,,,,,官公庁,国の機関,官公庁/国の機関,135,279
135.5184473,34.70243894,近畿中国森林管理局,きんきちゅうごくしんりんかんりきょく,近畿中国森林管理局（きんきちゅうごくしんりんかんりきょく）,北区天満橋1-8-75,北区,06-6881-3500,,,,,,,,官公庁,国の機関,官公庁/国の機関,104,286
135.4951967,34.71032489,大淀税務署,おおよどぜいむしょ,大淀税務署（おおよどぜいむしょ）,北区中津1-5-16,北区,06-6372-7221,,(国税全般),,http://www.nta.go.jp/osaka/guide/zeimusho/osaka/oyodo/index.htm,,,,官公庁,国の機関,官公庁/国の機関,106,277
135.4963191,34.70722517,梅田公証役場,うめだこうしょうやくば,梅田公証役場（うめだこうしょうやくば）,北区芝田2-7-18　全日空ビル新館3Ｆ,北区,06-6376-4158,,,,,,,,官公庁,国の機関,官公庁/国の機関,104,284
135.5240973,34.71490611,大阪拘置所,おおさかこうちしょ,大阪拘置所（おおさかこうちしょ）,都島区友渕町1-2-5,都島区,06-6921-0371,,,,,,,,官公庁,国の機関,官公庁/国の機関,104,3045
135.5328862,34.67057183,東成税務署,ひがしなりぜいむしょ,東成税務署（ひがしなりぜいむしょ）,東成区東小橋2丁目1番7号,東成区,06-6972-1331,,(国税全般),,http://www.nta.go.jp/osaka/guide/zeimusho/osaka/higashinari/data.htm#PAM,,,,官公庁,国の機関,官公庁/国の機関,106,3470
135.5396168,34.67140814,今里年金事務所,いまざとねんきんじむしょ,今里年金事務所（いまざとねんきんじむしょ）,東成区大今里西2丁目1番8号,東成区,06-6972-0161,,(社会保険・厚生年金等),,,,,,官公庁,国の機関,官公庁/国の機関,104,3406
135.5326942,34.68108106,大阪中央労働基準監督署,おおさかちゅうおうろうどうきじゅんかんとくしょ,大阪中央労働基準監督署（おおさかちゅうおうろうどうきじゅんかんとくしょ）,中央区森ノ宮中央1-15-10,中央区,06-6941-0451,,,,,,,,官公庁,国の機関,官公庁/国の機関,122,1176
135.5435137,34.70035811,城東年金相談センター,じょうとうねんきんそうだんせんたー,城東年金相談センター（じょうとうねんきんそうだんせんたー）,城東区中央1-8-24,城東区,,,,,http://www.nenkin.go.jp/office/27osaka/joto_sc.html,,,,官公庁,国の機関,官公庁/国の機関,118,4412
135.5436222,34.70066389,城東年金事務所,じょうとうねんきんじむしょ,城東年金事務所（じょうとうねんきんじむしょ）,城東区中央1-8-19,城東区,06-6932-1161,,,,http://www.nenkin.go.jp/office/27osaka/joto.html,http://www.osaka-bfmap.jp/sisetu_data/data/171424.php?bunrui=1&name=17.php,,,官公庁,国の機関,官公庁/国の機関,135,5169
135.5438249,34.70483097,城東税務署,じょうとうぜいむしょ,城東税務署（じょうとうぜいむしょ）,城東区中央2-14-29,城東区,06-6932-1271,,,,http://www.nta.go.jp/osaka/guide/zeimusho/osaka/joto/index.htm,,,,官公庁,国の機関,官公庁/国の機関,106,5173
135.5514941,34.70036994,国土交通省近畿地方整備局 大阪国道事務所,こくどこうつうしょうきんきちほうせいびきょく　おおさかこくどうじむしょ,国土交通省近畿地方整備局 大阪国道事務所（こくどこうつうしょうきんきちほうせいびきょく　おおさかこくどうじむしょ）,城東区今福西2-12-35,城東区,06-6932-1421,,,,http://www.kkr.mlit.go.jp/osaka/index.php,,,,官公庁,国の機関,官公庁/国の機関,104,5104
135.545006,34.721261,旭税務署,あさひぜいむしょ,旭税務署（あさひぜいむしょ）,旭区大宮1-1-25,旭区,06-6952-3201,,(国税全般),,http://www.nta.go.jp/osaka/guide/zeimusho/osaka/asahi/index.htm,,,,官公庁,国の機関,官公庁/国の機関,106,1937
135.4820642,34.72228289,淀川公共職業安定所,よどがわこうきょうしょくぎょうあんていじょ,淀川公共職業安定所（よどがわこうきょうしょくぎょうあんていじょ）,淀川区十三本町3-4-11,淀川区,06-6302-4771,,,,http://osaka-rodo.go.jp/hw/yodogawa/,,,,官公庁,国の機関,官公庁/国の機関,111,2482
135.4933857,34.72471089,東淀川税務署,ひがしよどがわぜいむしょ,東淀川税務署（ひがしよどがわぜいむしょ）,淀川区木川東2-3-1,淀川区,06-6303-1141,,,,http://www.nta.go.jp/osaka/guide/zeimusho/osaka/higashiyodogawa/index.htm,,,,官公庁,国の機関,官公庁/国の機関,106,2554
135.497992,34.72594203,淀川年金事務所,よどがわねんきんじむしょ,淀川年金事務所（よどがわねんきんじむしょ）,淀川区西中島4-1-1日清食品ビル2･3階,淀川区,06-6305-1881,06-6305-4838,,,http://www.sia.go.jp/sodan/madoguchi/shaho/osaka/osaka11.htm,,,,官公庁,国の機関,官公庁/国の機関,104,2473
135.4877782,34.73178889,大阪簡易裁判所交通分室,おおさかかんいさいばんしょこうつうぶんしつ,大阪簡易裁判所交通分室（おおさかかんいさいばんしょこうつうぶんしつ）,淀川区三国本町1-13-27,淀川区,06-6350-6970,,,,,,,,官公庁,国の機関,官公庁/国の機関,202,2445
135.4873888,34.74305583,淀川労働基準監督署,よどがわろうどうきじゅんかんとくしょ,淀川労働基準監督署（よどがわろうどうきじゅんかんとくしょ）,淀川区西三国4-1-12,淀川区,06-6350-3991,,,,http://osaka-rodo.go.jp/kyoku/kantoku/kantoku.html,,,,官公庁,国の機関,官公庁/国の機関,104,2515
135.5183423,34.68535475,中央府税事務所,ちゅうおうふぜいじむしょ,中央府税事務所（ちゅうおうふぜいじむしょ）,中央区大手前３−１−４３,中央区,06-6941-7951,06-6942-6151,(府税全般・府営住宅等),,http://www.pref.osaka.jp/chuofuzei/,http://www.osaka-bfmap.jp/sisetu_data/data/051412.php?bunrui=1&amp;amp;name=5.php,,,官公庁,府の機関,官公庁/府の機関,106,1172
135.4144419,34.63796406,大阪府咲洲庁舎,おおさかふさきしまちょうしゃ,大阪府咲洲庁舎（おおさかふさきしまちょうしゃ）,住之江区南港北1-14-16,住之江区,,,,,,,,,官公庁,府の機関,官公庁/府の機関,112,675
135.5196169,34.602072,大阪府教育センター,おおさかふきょういくせんたー,大阪府教育センター（おおさかふきょういくせんたー）,住吉区苅田4丁目13番23号,住吉区,06-6692-1882,06-6692-1898,,,http://www.osaka-c.ed.jp/,,,,官公庁,府の機関,官公庁/府の機関,112,2981
135.5197921,34.63935614,大阪府なにわ南府税事務所,おおさかふなにわみなみふぜいじむしょ,大阪府なにわ南府税事務所（おおさかふなにわみなみふぜいじむしょ）,阿倍野区三明町2-10-21,阿倍野区,06-6621-1361,06-6621-0682,(府税全般・府営住宅等),,http://www.pref.osaka.jp/fumin/plaza/map_naniwaminami.html,,,,官公庁,府の機関,官公庁/府の機関,106,1201
135.5139286,34.64423469,大阪府パスポートセンター阿倍野分室,おおさかふパスポートセンターあべのぶんしつ,大阪府パスポートセンター阿倍野分室（おおさかふパスポートセンターあべのぶんしつ）,阿倍野区阿倍野筋2-1-40あべのand（ｱﾝﾄﾞ）4階,阿倍野区,06-6625-2304,,,,http://www.pref.osaka.jp/passport/,,,,官公庁,府の機関,官公庁/府の機関,112,8456
135.484867,34.68217508,大阪府西大阪治水事務所,おおさかふにしおおさかちすいじむしょ,大阪府西大阪治水事務所（おおさかふにしおおさかちすいじむしょ）,西区江之子島2-1-64,西区,06-6541-7771,,,,,,,,官公庁,府の機関,官公庁/府の機関,112,4787
135.508947,34.697333,なにわ北府税事務所,なにわきたふぜいじむしょ,なにわ北府税事務所（なにわきたふぜいじむしょ）,北区西天満3-5-24,北区,06-6362-8611,,(府税全般・府営住宅等),,http://www.pref.osaka.jp/zei/alacarte/map2.html,http://www.osaka-bfmap.jp/sisetu_data/data/011411.php?bunrui=1&name=1.php,,,官公庁,府の機関,官公庁/府の機関,106,271
135.5182472,34.68405617,パスポートセンター,ぱすぽーとせんたー,パスポートセンター（ぱすぽーとせんたー）,中央区大手前3-1-43 大阪府新別館南館,中央区,06-6944-6626,06-6941-7431,,,http://www.pref.osaka.jp/passport/,http://www.osaka-bfmap.jp/sisetu_data/data/051404.php?bunrui=1&name=5.php,,,官公庁,府の機関,官公庁/府の機関,112,1174
135.5194189,34.68637783,大阪府庁,おおさかふちょう,大阪府庁（おおさかふちょう）,中央区大手前2-1-22,中央区,06-6941-0351,06-6944-6601,,,http://www.pref.osaka.jp/,http://www.osaka-bfmap.jp/sisetu_data/data/051401.php?bunrui=1&name=5.php,,,官公庁,府の機関,官公庁/府の機関,112,1173
135.5128142,34.68993592,エル･おおさか：府立労働センター,えるおおさかふりつろうどうせんたー,エル･おおさか：府立労働センター（えるおおさかふりつろうどうせんたー）,中央区北浜東3-14,中央区,06-6942-0001,,,,http://www.l-osaka.or.jp/,,,,官公庁,府の機関,官公庁/府の機関,122,1151
135.5207138,34.68997506,ドーンセンター：府立男女共同参画・青少年センター,ドーンセンター：ふりつだんじょきょうどうさんかく・せいしょうねんせんたー,ドーンセンター：府立男女共同参画・青少年センター（ドーンセンター：ふりつだんじょきょうどうさんかく・せいしょうねんせんたー）,中央区大手前1-3-49,中央区,06-6910-8500,06-6910-8775,,,http://www.dawncenter.or.jp/,http://www.osaka-bfmap.jp/sisetu_data/data/050703.php?bunrui=1&name=5.php,,,官公庁,府の機関,官公庁/府の機関,122,1150
135.5505172,34.68654181,大阪府寝屋川水系改修工営所,おおさかふねやがわすいけいかいしゅうこうえいしょ,大阪府寝屋川水系改修工営所（おおさかふねやがわすいけいかいしゅうこうえいしょ）,城東区東中浜4-6-35,城東区,06-6962-7661,06-6969-6483,,,http://www.pref.osaka.jp/ne/,,,,官公庁,府の機関,官公庁/府の機関,117,5198
135.5400083,34.700261,大阪自動車税事務所,おおさかじどうしゃぜいじむしょ,大阪自動車税事務所（おおさかじどうしゃぜいじむしょ）,城東区蒲生2-10-28,城東区,06-6939-1381,06-6930-0137,,,http://www.pref.osaka.jp/osakajidoshazei/,,,,官公庁,府の機関,官公庁/府の機関,106,5071
135.4754138,34.73462194,大阪府西大阪治水事務所神崎川出張所,おおさかふにしおおさかちすいじむしょかんざきがわしゅっちょうしょ,大阪府西大阪治水事務所神崎川出張所（おおさかふにしおおさかちすいじむしょかんざきがわしゅっちょうしょ）,淀川区新高5-18-25,淀川区,06-6393-0221,,,,http://www.pref.osaka.jp/nishiosaka/kanzaki/index.html,,,,官公庁,府の機関,官公庁/府の機関,108,2492
135.41115,34.63831,大阪市港湾局,おおさかしこうわんきょく,大阪市港湾局（おおさかしこうわんきょく）,住之江区南港北2丁目1番10号　ATCビル　ITM棟10階,住之江区,06-6615-7704,06-6615-7719,,平日の9：00〜17：30,,,,,官公庁,市の機関,官公庁/市の機関,112,92864
135.443766,34.649246,大阪市港湾局２突事務所,おおさかしこうわんきょくにとつじむしょ,大阪市港湾局２突事務所（おおさかしこうわんきょくにとつじむしょ）,港区海岸通３丁目４?２８,港区,施設管理担当06-6572-0010　防災保安担当06-6572-2691　海務担当06-6571-1966  　埠頭担当06-6572-4033　  船舶担当06-6572-4101,施設管理担当06-6571-2398　防災保安担当06-6571-2398　海務担当06-6571-1992　埠頭担当06-6571-1992　船舶担当06-5671-7527,,平日の9：00〜17：30,,,,,官公庁,市の機関,官公庁/市の機関,112,92865
135.453696,34.635578,大阪市港湾局鶴町事務所,おおさかしこうわんきょくつるまちじむしょ,大阪市港湾局鶴町事務所（おおさかしこうわんきょくつるまちじむしょ）,大正区鶴町２丁目２０?４７,大正区,電気担当06-6568-9091　機械担当06-6552-0057　海上保全担当06-6552−0011　,電気担当06-6554-5210　機械担当06-6552-4055　海上保全担当06-6552-0473,,平日の9：00〜17：30,,,,,官公庁,市の機関,官公庁/市の機関,112,92866
135.394419,34.662343,大阪市港湾局緑地管理事務所,おおさかしこうわんきょくりょくちかんりじむしょ,大阪市港湾局緑地管理事務所（おおさかしこうわんきょくりょくちかんりじむしょ）,此花区北港緑地２丁目３?１１４,此花区,06-6460-7716,06-6460-7717,,平日の9：00〜17：30,,,,,官公庁,市の機関,官公庁/市の機関,112,92867
135.46413,34.69611731,建設局海老江下水処理場,けんせつきょくえびえげすいしょりじょう,建設局海老江下水処理場（けんせつきょくえびえげすいしょりじょう）,福島区大開4-1-141,福島区,06-6462-1434,06-6463-4330,,,http://www.city.osaka.lg.jp/kensetsu/page/0000141324.html,,,,官公庁,市の機関,官公庁/市の機関,117,9005
135.5175001,34.66174408,大阪国際交流センター,おおさかこくさいこうりゅうせんたー,大阪国際交流センター（おおさかこくさいこうりゅうせんたー）,天王寺区上本町8-2-6,天王寺区,06-6772-5931,,,,http://www.ih-osaka.or.jp,http://www.osaka-bfmap.jp/sisetu_data/data/090701.php?bunrui=1&name=9.php,,,官公庁,市の機関,官公庁/市の機関,149,4287
135.4356613,34.68032203,建設局此花下水処理場,けんせつきょくこのはなげすいしょりじょう,建設局此花下水処理場（けんせつきょくこのはなげすいしょりじょう）,此花区酉島5-10-62,此花区,6468-0017,6464-3930,,,http://www.city.osaka.lg.jp/kensetsu/page/0000141871.html,,,,官公庁,市の機関,官公庁/市の機関,117,1316
135.5189753,34.63933414,水道局南部水道工事センター（田辺分室）,すいどうきょくなんぶすいどうこうじせんたー（たなべぶんしつ）,水道局南部水道工事センター（田辺分室）（すいどうきょくなんぶすいどうこうじせんたー（たなべぶんしつ））,阿倍野区三明町2-9-17（阿倍野区役所北側）,阿倍野区,06-6625-6191,06-6623-8666,給水装置の工事関係,午前9時〜午後5時30分,http://www.city.osaka.lg.jp/suido/page/0000015040.html,,,,官公庁,市の機関,官公庁/市の機関,117,19210
135.4731608,34.695936,水道局北部水道工事センター（野田分室）,すいどうきょくほくぶすいどうこうじせんたー（のだぶんしつ）,水道局北部水道工事センター（野田分室）（すいどうきょくほくぶすいどうこうじせんたー（のだぶんしつ））,福島区海老江5-3-6（野田営業所内）,福島区,06-6458-6046,06-6458-6072,配水管の工事関係,午前9時〜午後5時30分,http://www.city.osaka.lg.jp/suido/page/0000015040.html,,,,官公庁,市の機関,官公庁/市の機関,117,3504
135.5343414,34.74137467,水道局北部水道工事センター（豊里分室）,すいどうきょくほくぶすいどうこうじせんたー（とよさとぶんしつ）,水道局北部水道工事センター（豊里分室）（すいどうきょくほくぶすいどうこうじせんたー（とよさとぶんしつ））,東淀川区豊里2-25-12（豊里営業所内）,東淀川区,06-6329-6666　,06-6329-6676,給水装置の工事関係,午前9時〜午後5時30分,http://www.city.osaka.lg.jp/suido/page/0000015040.html,,,,官公庁,市の機関,官公庁/市の機関,117,19218
135.5741559,34.70424683,水道局鶴見サービスステーション,すいどうきょくつるみさーびすすてーしょん,水道局鶴見サービスステーション（すいどうきょくつるみさーびすすてーしょん）,鶴見区横堤5-4-19（鶴見区役所2階）,鶴見区,06-6458-1132（お客さまセンター）,06-6458-2100（お客さまセンター）,水道料金の受付,午前9時〜午後5時30分,http://www.city.osaka.lg.jp/suido/page/0000014830.html,,,,官公庁,市の機関,官公庁/市の機関,117,4009
135.5185942,34.63906939,水道局阿倍野サービスステーション,すいどうきょくあべのさーびすすてーしょん,水道局阿倍野サービスステーション（すいどうきょくあべのさーびすすてーしょん）,阿倍野区文の里1-1-40（阿倍野区役所1階）,阿倍野区,06-6458-1132（お客さまセンター）,06-6458-2100（お客さまセンター）,水道料金の受付,午前9時〜午後5時30分,http://www.city.osaka.lg.jp/suido/page/0000014830.html,,,,官公庁,市の機関,官公庁/市の機関,117,1206
135.4731938,34.69580008,水道局野田営業所,すいどうきょくのだえいぎょうしょ,水道局野田営業所（すいどうきょくのだえいぎょうしょ）,福島区海老江5-3-6,福島区,06-6458-1132（お客さまセンター）,06-6458-2100（お客さまセンター）,水道料金の受付等,午前9時〜午後5時30分,http://www.city.osaka.lg.jp/suido/page/0000014830.html,,,,官公庁,市の機関,官公庁/市の機関,117,19198
135.5343347,34.74138019,水道局豊里営業所,すいどうきょくとよさとえいぎょうしょ,水道局豊里営業所（すいどうきょくとよさとえいぎょうしょ）,東淀川区豊里2-25-12,東淀川区,06-6458-1132（お客さまセンター）,06-6458-2100（お客さまセンター）,水道料金の受付等,午前9時〜午後5時30分,http://www.city.osaka.lg.jp/suido/page/0000014830.html,,,,官公庁,市の機関,官公庁/市の機関,117,782
135.486081,34.676281,水道局西サービスステーション,すいどうきょくにしさーびすすてーしょん,水道局西サービスステーション（すいどうきょくにしさーびすすてーしょん）,西区新町４−５?１４（西区役所５階）,西区,06-6458-1132（お客さまセンター）,06-6458-2100（お客さまセンター）,水道料金の受付,午前９時~午後５時３０分,http://www.city.osaka.lg.jp/suido/page/0000014830.html,,,,官公庁,市の機関,官公庁/市の機関,117,92837
135.4898499,34.62083592,水道局粉浜営業所,すいどうきょくこはまえいぎょうしょ,水道局粉浜営業所（すいどうきょくこはまえいぎょうしょ）,住之江区粉浜1-15-16,住之江区,06-6458-1132（お客さまセンター）,06-6458-2100（お客さまセンター）,水道料金の受付等,午前9時〜午後5時30分,http://www.city.osaka.lg.jp/suido/page/0000014830.html,,,,官公庁,市の機関,官公庁/市の機関,117,691
135.4723308,34.69219758,水道局福島サービスステーション,すいどうきょくふくしまさーびすすてーしょん,水道局福島サービスステーション（すいどうきょくふくしまさーびすすてーしょん）,福島区大開1-8-1（福島区役所1階）,福島区,06-6458-1132（お客さまセンター）,06-6458-2100（お客さまセンター）,水道料金の受付,午前9時〜午後5時30分,http://www.city.osaka.lg.jp/suido/page/0000014830.html,,,,官公庁,市の機関,官公庁/市の機関,117,19212
135.5323411,34.603241,水道局矢田出張所,すいどうきょくやたしゅっちょうじょ,水道局矢田出張所（すいどうきょくやたしゅっちょうじょ）,東住吉区矢田6-7-25（東住吉区役所矢田出張所1階）,東住吉区,06-6458-1132（お客さまセンター）,06-6458-2100（お客さまセンター）,水道料金の受付,午前9時〜午後1時,http://www.city.osaka.lg.jp/suido/page/0000014830.html,,,,官公庁,市の機関,官公庁/市の機関,117,19214
135.5231689,34.62083592,水道局田辺営業所,すいどうきょくたなべえいぎょうしょ,水道局田辺営業所（すいどうきょくたなべえいぎょうしょ）,東住吉区南田辺3-2-1,東住吉区,06-6458-1132（お客さまセンター）,06-6458-2100（お客さまセンター）,水道料金の受付等,午前9時〜午後5時30分,http://www.city.osaka.lg.jp/suido/page/0000014830.html,,,,官公庁,市の機関,官公庁/市の機関,117,3142
135.534361,34.65353908,水道局生野サービスステーション,すいどうきょくいくのサービスステーション,水道局生野サービスステーション（すいどうきょくいくのサービスステーション）,生野区勝山南3-1-19（生野区役所1階）,生野区,06-6458-1132（お客さまセンター）,06-6458-2100（お客さまセンター）,水道料金の受付,午前9時〜午後5時30分,http://www.city.osaka.lg.jp/suido/page/0000014830.html,,,,官公庁,市の機関,官公庁/市の機関,117,4537
135.5166438,34.73795794,水道局淡路サービスステーション,すいどうきょくあわじさーびすすてーしょん,水道局淡路サービスステーション（すいどうきょくあわじさーびすすてーしょん）,東淀川区東淡路4-15-1-200(東淀川区役所淡路出張所2階),東淀川区,06-6458-1132（お客さまセンター）,06-6458-2100（お客さまセンター）,水道料金の受付,午前9時〜午後5時30分,http://www.city.osaka.lg.jp/suido/page/0000014830.html,http://www.osaka-bfmap.jp/sisetu_data/data/191301.php?bunrui=3&amp;name=search_name.php,,,官公庁,市の機関,官公庁/市の機関,117,170
135.4996467,34.65931903,水道局浪速サービスステーション,すいどうきょくなにわさーびすすてーしょん,水道局浪速サービスステーション（すいどうきょくなにわさーびすすてーしょん）,浪速区敷津東1-4-20（浪速区役所4階）,浪速区,06-6458-1132（お客さまセンター）,06-6458-2100（お客さまセンター）,水道料金の受付,午前9時〜午後5時30分,http://www.city.osaka.lg.jp/suido/page/0000014830.html,http://www.osaka-bfmap.jp/sisetu_data/data/101301.php?bunrui=3&amp;name=search_name.php,,,官公庁,市の機関,官公庁/市の機関,117,2657
135.464506,34.68361703,水道局此花サービスステーション,すいどうきょくこのはなさーびすすてーしょん,水道局此花サービスステーション（すいどうきょくこのはなさーびすすてーしょん）,此花区西九条5-4-25（此花総合センタービル2階）,此花区,06-6458-1132（お客さまセンター）,06-6458-2100（お客さまセンター）,水道料金の受付,,http://www.city.osaka.lg.jp/suido/page/0000014830.html,,,,官公庁,市の機関,官公庁/市の機関,117,1277
135.4560971,34.71125311,水道局歌島サービスステーション,すいどうきょくうたじまさーびすすてーしょん,水道局歌島サービスステーション（すいどうきょくうたじまさーびすすてーしょん）,西淀川区御幣島1-2-10（西淀川区役所1階）,西淀川区,06-6458-1132（お客さまセンター）,06-6458-2100（お客さまセンター）,水道料金の受付,午前9時〜午後5時30分,http://www.city.osaka.lg.jp/suido/page/0000014830.html,,,,官公庁,市の機関,官公庁/市の機関,117,3646
135.5193373,34.66811192,水道局東部水道工事センター（上本町分室）,すいどうきょくとうぶすいどうこうじせんたー（うえほんまちぶんしつ）,水道局東部水道工事センター（上本町分室）（すいどうきょくとうぶすいどうこうじせんたー（うえほんまちぶんしつ））,中央区上本町西5-1-12（上本町営業所内）,中央区,06-6762-5576,06-6762-5608,配水管の工事関係,午前9時〜午後5時30分,http://www.city.osaka.lg.jp/suido/page/0000015040.html,,,,官公庁,市の機関,官公庁/市の機関,117,19206
135.541458,34.669906,水道局東成サービスステーション,すいどうきょくひがしなりさーびすすてーしょん,水道局東成サービスステーション（すいどうきょくひがしなりさーびすすてーしょん）,東成区大今里西２−８−４（東成区役所２階）,東成区,06-6458-1132（お客さまセンター）,06-6458-2100（お客さまセンター）,水道料金の受付,午前９時~午後５時３０分,http://www.city.osaka.lg.jp/suido/page/0000014830.html,,,,官公庁,市の機関,官公庁/市の機関,117,92836
135.5441457,34.72123958,水道局旭サービスステーション,すいどうきょくあさひさーびすすてーしょん,水道局旭サービスステーション（すいどうきょくあさひさーびすすてーしょん）,旭区大宮1-1-17（旭区役所地下1階）,旭区,06-6458-1132（お客さまセンター）,06-6458-2100（お客さまセンター）,水道料金の受付,午前9時〜午後5時30分,http://www.city.osaka.lg.jp/suido/page/0000014830.html,,,,官公庁,市の機関,官公庁/市の機関,117,19213
135.5491165,34.61980058,水道局平野サービスステーション,すいどうきょくひらのさーびすすてーしょん,水道局平野サービスステーション（すいどうきょくひらのさーびすすてーしょん）,平野区背戸口3-8-19(平野区役所2階),平野区,06-6458-1132（お客さまセンター）,06-6458-2100（お客さまセンター）,水道料金の受付,午前9時〜午後5時30分,http://www.city.osaka.lg.jp/suido/page/0000014830.html,http://www.osaka-bfmap.jp/sisetu_data/data/231301.php?bunrui=3&amp;name=search_name.php,,,官公庁,市の機関,官公庁/市の機関,117,2330
135.4725531,34.65046089,水道局大正サービスステーション,すいどうきょくたいしょうさーびすすてーしょん,水道局大正サービスステーション（すいどうきょくたいしょうさーびすすてーしょん）,大正区千島2-7-95（大正区役所1階）,大正区,06-6458-1132（お客さまセンター）,06-6458-2100（お客さまセンター）,水道料金の受付,午前9時〜午後5時30分,http://www.city.osaka.lg.jp/suido/page/0000014830.html,,,,官公庁,市の機関,官公庁/市の機関,117,3860
135.475401,34.67184736,水道局境川営業所,すいどうきょくさかいがわえいぎょうしょ,水道局境川営業所（すいどうきょくさかいがわえいぎょうしょ）,西区九条南1-4-18,西区,06-6458-1132(お客さまセンター）,06-6458-2100（お客さまセンター）,水道料金の受付等,午前9時〜午後5時30分,http://www.city.osaka.lg.jp/suido/page/0000014830.html,,,,官公庁,市の機関,官公庁/市の機関,117,4776
135.4839082,34.71882514,水道局十三サービスステーション,すいどうきょくじゅうそうさーびすすてーしょん,水道局十三サービスステーション（すいどうきょくじゅうそうさーびすすてーしょん）,淀川区十三東1-18-15,淀川区,06-6458-1132（お客さまセンター）,06-6458-2100（お客さまセンター）,水道料金の受付,午前9時〜午後5時30分,http://www.city.osaka.lg.jp/suido/page/0000014830.html,http://www.osaka-bfmap.jp/sisetu_data/data/121301.php?bunrui=3&amp;name=search_name.php,,,官公庁,市の機関,官公庁/市の機関,117,2474
135.510184,34.70558758,水道局北サービスステーション,すいどうきょくきたさーびすすてーしょん,水道局北サービスステーション（すいどうきょくきたさーびすすてーしょん）,北区扇町2-1-27（北区役所2階）,北区,06-6458-1132（お客さまセンター）,06-6458-2100（お客さまセンター）,水道料金の受付,午前9時〜午後5時30分,http://www.city.osaka.lg.jp/suido/page/0000014830.html,,,,官公庁,市の機関,官公庁/市の機関,117,268
135.5164659,34.73192547,水道局体験型研修センター,すいどうきょくたいけんがたけんしゅうせんたー,水道局体験型研修センター（すいどうきょくたいけんがたけんしゅうせんたー）,東淀川区柴島３−１１−９４,東淀川区,06-6322-8549,06-6322-8549,,,,,,,官公庁,市の機関,官公庁/市の機関,117,9263
135.5007368,34.60368944,水道局住吉サービスステーション,すいどうきょくすみよしさーびすすてーしょん,水道局住吉サービスステーション（すいどうきょくすみよしさーびすすてーしょん）,住吉区南住吉3-15-55（住吉区役所1階）,住吉区,06-6458-1132（お客さまセンター）,6-6458-2100（お客さまセンター）,水道料金の受付,午前9時〜午後5時30分,http://www.city.osaka.lg.jp/suido/page/0000014830.html,,,,官公庁,市の機関,官公庁/市の機関,117,397
135.5412533,34.67067489,水道局今里営業所,すいどうきょくいまざとえいぎょうしょ,水道局今里営業所（すいどうきょくいまざとえいぎょうしょ）,東成区大今里西1-22-13,東成区,06-6458-1132（お客さまセンター）,06-6458-2100（お客さまセンター）,水道料金の受付等,午前9時〜午後5時30分,http://www.city.osaka.lg.jp/suido/page/0000014830.html,,,,官公庁,市の機関,官公庁/市の機関,117,3403
135.5193333,34.66813889,水道局上本町営業所,すいどうきょくうえほんまちえいぎょうしょ,水道局上本町営業所（すいどうきょくうえほんまちえいぎょうしょ）,中央区上本町西5-1-12,中央区,06-6458-1132（お客さまセンター）,06-6458-2100（お客さまセンター）,水道料金の受付等,午前9時〜午後5時30分,http://www.city.osaka.lg.jp/suido/page/0000014830.html,,,,官公庁,市の機関,官公庁/市の機関,117,1149
135.505693,34.73235497,都市整備局淡路土地区画整理事務所,としせいびきょくあわじとちくかくせいりじむしょ,都市整備局淡路土地区画整理事務所（としせいびきょくあわじとちくかくせいりじむしょ）,東淀川区東中島4-4-4,東淀川区,06-6320-9461,06-6370-4855,,,,,,,官公庁,市の機関,官公庁/市の機関,108,328
135.4670749,34.61395803,環境局西南環境事業センター,かんきょうきょくせいなんかんきょうじぎょうせんたー,環境局西南環境事業センター（かんきょうきょくせいなんかんきょうじぎょうせんたー）,住之江区泉1-1-111,住之江区,06-6685-1271,,　（家庭ごみ・のら犬等死体処理）,,,,,,官公庁,市の機関,官公庁/市の機関,112,122
135.4697625,34.61352589,建設局住之江工営所,けんせつきょくすみのえこうえいしょ,建設局住之江工営所（けんせつきょくすみのえこうえいしょ）,住之江区泉1-1-189,住之江区,06-6686-0434,06‐6686‐1341,,,http://www.city.osaka.lg.jp/kensetsu/page/0000057468.html,,,,官公庁,市の機関,官公庁/市の機関,108,123
135.4697692,34.61333442,建設局南部方面管理事務所,けんせつきょくなんぶほうめんかんりじむしょ,建設局南部方面管理事務所（けんせつきょくなんぶほうめんかんりじむしょ）,住之江区泉1-1-189,住之江区,06-6686-1240,06-6686-1341,,,http://www.city.osaka.lg.jp/kensetsu/page/0000057431.html,,,,官公庁,市の機関,官公庁/市の機関,112,9004
135.4696533,34.61344678,建設局住之江下水処理場,けんせつきょくすみのえげすいしょりじょう,建設局住之江下水処理場（けんせつきょくすみのえげすいしょりじょう）,住之江区泉1-1-189,住之江区,06-6686-1240,06-6686-1341,,,http://www.city.osaka.lg.jp/kensetsu/page/0000012065.html,,,,官公庁,市の機関,官公庁/市の機関,117,9006
135.4856923,34.60846403,住之江区保健福祉センター分館,すみのえくほけんふくしせんたーぶんかん,住之江区保健福祉センター分館（すみのえくほけんふくしせんたーぶんかん）,住之江区浜口東3-5-16,住之江区,,,,,,,,,官公庁,市の機関,官公庁/市の機関,138,689
135.5003535,34.60365544,住吉区役所・住吉区保健福祉センター,すみよしくやくしょ・すみよしくほけんふくしせんたー,住吉区役所・住吉区保健福祉センター（すみよしくやくしょ・すみよしくほけんふくしせんたー）,住吉区南住吉3丁目15番55号,住吉区,電話番号一覧,06-6692-5535,,,http://www.city.osaka.lg.jp/sumiyoshi/,,,,官公庁,市の機関,官公庁/市の機関,138,466
135.4826504,34.60965289,住之江区役所,すみのえくやくしょ,住之江区役所（すみのえくやくしょ）,住之江区御崎３−１−１７,住之江区,,,,,,http://www.osaka-bfmap.jp/sisetu_data/data/200101.php?bunrui=1&name=20.php,,,官公庁,市の機関,官公庁/市の機関,101,4965
135.4825533,34.60965586,住之江区保健福祉センター,すみのえくほけんふくしせんたー,住之江区保健福祉センター（すみのえくほけんふくしせんたー）,住之江区御崎３−１−１７,住之江区,,,,,,,,,官公庁,市の機関,官公庁/市の機関,138,4966
135.4149971,34.61724272,中央卸売市場南港市場,ちゅうおうおろしうりしじょうなんこうしじょう,中央卸売市場南港市場（ちゅうおうおろしうりしじょうなんこうしじょう）,住之江区南港南5-2-48,住之江区,06-6675-2010,06-6675-2029,,,http://www.city.osaka.lg.jp/shijo/index.html,,,,官公庁,市の機関,官公庁/市の機関,140,9001
135.4106603,34.63800806,大阪市水道局庁舎,おおさかしすいどうきょくちょうしゃ,大阪市水道局庁舎（おおさかしすいどうきょくちょうしゃ）,住之江区南港北2-1-10アジア太平洋トレードセンター（ＡＴＣ）ＩＴＭ棟 ９階,住之江区,06-6616-5404（総務課）,06-6616-5049（総務課）,,,http://www.city.osaka.lg.jp/suido/,,,,官公庁,市の機関,官公庁/市の機関,117,19301
135.4114304,34.63823939,大阪市建設局,おおさかしけんせつきょく,大阪市建設局（おおさかしけんせつきょく）,大阪市住之江区南港北2-1-10,住之江区,,,,平日の9時〜17時30分,,,,,官公庁,市の機関,官公庁/市の機関,112,19305
135.4653973,34.62013622,動物管理センター(おおさかワンニャンセンター）,どうぶつかんりせんたー（おおさかわんにゃんせんたー）,動物管理センター(おおさかワンニャンセンター）（どうぶつかんりせんたー（おおさかわんにゃんせんたー））,住之江区柴谷2丁目5番74号,住之江区,06-6685-3700,,飼い犬・猫の引き取り,,,,,,官公庁,市の機関,官公庁/市の機関,112,615
135.4898378,34.62086106,水道局西部水道工事センター（粉浜分室）,すいどうきょくせいぶすいどうこうじせんたー（こはまぶんしつ）,水道局西部水道工事センター（粉浜分室）（すいどうきょくせいぶすいどうこうじせんたー（こはまぶんしつ））,住之江区粉浜1-15-16（粉浜営業所内）,住之江区,06-6678-2996,06-6678-2999,給水装置の工事関係,午前9時〜午後5時30分,http://www.city.osaka.lg.jp/suido/page/0000015040.html,,,,官公庁,市の機関,官公庁/市の機関,117,19208
135.4779248,34.62745306,環境局南部環境事業センター,かんきょうきょくなんぶかんきょうじぎょうせんたー,環境局南部環境事業センター（かんきょうきょくなんぶかんきょうじぎょうせんたー）,西成区南津守5丁目5番26号,西成区,06-6661-5450,,,,,,,,官公庁,市の機関,官公庁/市の機関,112,4875
135.4748559,34.62755803,環境局住之江工場,かんきょうきょくすみのえこうじょう,環境局住之江工場（かんきょうきょくすみのえこうじょう）,住之江区北加賀屋4-1-26,住之江区,06-6681-0035,06-6685-7946,,,,,,,官公庁,市の機関,官公庁/市の機関,114,9008
135.4658784,34.64547517,環境局  西部環境事業センター,かんきょうきょく　せいぶかんきょうじぎょうせんたー,環境局  西部環境事業センター（かんきょうきょく　せいぶかんきょうじぎょうせんたー）,大正区小林西1-20-29,大正区,06-6552-0901,,,,,,,,官公庁,市の機関,官公庁/市の機関,112,3827
135.4755667,34.63527481,環境局　大正工場,かんきょうきょく　たいしょうこうじょう,環境局　大正工場（かんきょうきょく　たいしょうこうじょう）,大正区南恩加島1-11-24,大正区,06-6553-0464,,,,,,,,官公庁,市の機関,官公庁/市の機関,108,3989
135.4762223,34.63550617,環境局　木津川事務所,かんきょうきょく　きづがわじむしょ,環境局　木津川事務所（かんきょうきょく　きづがわじむしょ）,大正区南恩加島1-11-35,大正区,06-6551-1730,,,,,,,,官公庁,市の機関,官公庁/市の機関,108,3985
135.494436,34.63480622,西成区役所,にしなりくやくしょ,西成区役所（にしなりくやくしょ）,西成区岸里1丁目5番20号,西成区,06-6659-9986,,,,,http://www.osaka-bfmap.jp/sisetu_data/data/240101.php?bunrui=1&name=24.php,,,官公庁,市の機関,官公庁/市の機関,101,4826
135.475153,34.64581106,建設局千島下水処理場,けんせつきょくちしまげすいしょりじょう,建設局千島下水処理場（けんせつきょくちしまげすいしょりじょう）,大正区小林東2-5-59,大正区,06-6551-0766,,,,,,,,官公庁,市の機関,官公庁/市の機関,112,26
135.481472,34.64319228,建設局津守工営所,けんせつきょくつもりこうえいしょ,建設局津守工営所（けんせつきょくつもりこうえいしょ）,西成区津守2-7-13,西成区,06-6567-6495,06-6567-6513,,,,,,,官公庁,市の機関,官公庁/市の機関,108,2708
135.4814639,34.64340661,建設局西部方面管理事務所,けんせつきょくせいぶほうめんかんりじむしょ,建設局西部方面管理事務所（けんせつきょくせいぶほうめんかんりじむしょ）,西成区津守2丁目7番13号,西成区,06-6567-6491,,,,,,,,官公庁,市の機関,官公庁/市の機関,112,4863
135.4814552,34.64316014,建設局津守下水処理場,けんせつきょくつもりげすいしょりじょう,建設局津守下水処理場（けんせつきょくつもりげすいしょりじょう）,西成区津守2−7−13,西成区,06-6567-6491,06-6562-7531,,,http://www.city.osaka.lg.jp/kensetsu/page/0000012065.html,,,,官公庁,市の機関,官公庁/市の機関,117,9003
135.5478829,34.59608583,環境局平野工場,かんきょうきょくひらのこうじょう,環境局平野工場（かんきょうきょくひらのこうじょう）,平野区瓜破南1-3-14,平野区,06-6707-3753,06-6799-0169,,,,,,,官公庁,市の機関,官公庁/市の機関,108,2349
135.5495612,34.59611097,環境局東南環境事業センター,かんきょうきょくとうなんかんきょうじぎょうせんたー,環境局東南環境事業センター（かんきょうきょくとうなんかんきょうじぎょうせんたー）,平野区瓜破南1-3-40,平野区,06-6700-1750,06-6706-2007,,,,,,,官公庁,市の機関,官公庁/市の機関,112,2250
135.5539782,34.60120797,平野区役所瓜破出張所,ひらのくやくしょうりわりしゅっちょうしょ,平野区役所瓜破出張所（ひらのくやくしょうりわりしゅっちょうしょ）,平野区瓜破7-2-7,平野区,06-6709-6664,,,,,http://www.osaka-bfmap.jp/sisetu_data/data/230102.php?bunrui=1&name=23.php,,,官公庁,市の機関,官公庁/市の機関,101,2243
135.5194613,34.61350814,南部方面公園事務所,なんぶほうめんこうえんじむしょ,南部方面公園事務所（なんぶほうめんこうえんじむしょ）,東住吉区長居公園1-1,東住吉区,06-6691-7200,06-6691-6976,,,,,,,官公庁,市の機関,官公庁/市の機関,154,3107
135.5322172,34.60286094,東住吉区役所矢田出張所保健分室,ひがしすみよしくやくしょやたしゅっちょうしょほけんぶんしつ,東住吉区役所矢田出張所保健分室（ひがしすみよしくやくしょやたしゅっちょうしょほけんぶんしつ）,東住吉区矢田6-7-12,東住吉区,06-6697-2671,,,,,http://www.osaka-bfmap.jp/sisetu_data/data/220103.php?bunrui=1&name=22.php,,,官公庁,市の機関,官公庁/市の機関,101,3166
135.532236,34.60321403,東住吉区役所矢田出張所,ひがしすみよしくやくしょやたしゅっちょうしょ,東住吉区役所矢田出張所（ひがしすみよしくやくしょやたしゅっちょうしょ）,東住吉区矢田6-7-25,東住吉区,06-6692-1341,,,,http://www.city.osaka.lg.jp/higashisumiyoshi/page/0000001184.html,http://www.osaka-bfmap.jp/sisetu_data/data/220102.php?bunrui=1&name=22.php,,,官公庁,市の機関,官公庁/市の機関,101,3167
135.547701,34.60961297,平野住宅管理センター,ひらのじゅうたくかんりせんたー,平野住宅管理センター（ひらのじゅうたくかんりせんたー）,平野区喜連西6-2-55,平野区,06-6703-4236,06-6703-4237,,,,,,,官公庁,市の機関,官公庁/市の機関,112,2244
135.5688199,34.60603444,平野区役所長吉出張所,ひらのくやくしょながよししゅっちょうしょ,平野区役所長吉出張所（ひらのくやくしょながよししゅっちょうしょ）,平野区長吉長原2-6-58,平野区,06-6709-1201,,,,http://www.city.osaka.lg.jp/hirano/page/0000039466.html,,,,官公庁,市の機関,官公庁/市の機関,101,2297
135.5691325,34.60871872,都市整備局長吉東部土地区画整理事務所,としせいびきょくながよしとうぶとちくかくせいりじむしょ,都市整備局長吉東部土地区画整理事務所（としせいびきょくながよしとうぶとちくかくせいりじむしょ）,大阪市平野区長吉出戸５−３−６６,平野区,06-6705-5550,06-6705-5566,,,,,,,官公庁,市の機関,官公庁/市の機関,108,8520
135.5654533,34.60949689,出戸バスターミナル,でとばすたーみなる,出戸バスターミナル（でとばすたーみなる）,平野区喜連東5-16-21,平野区,06-6790-0911,,,,,,,,官公庁,市の機関,官公庁/市の機関,159,2286
135.5264722,34.62215586,東住吉区保健福祉センター,ひがしすみよしくほけんふくしせんたー,東住吉区保健福祉センター（ひがしすみよしくほけんふくしせんたー）,東住吉区東田辺1-13-4,東住吉区,06-4399-9986,06-6629-4533,,,http://www.city.osaka.lg.jp/higashisumiyoshi/index.html,,,,官公庁,市の機関,官公庁/市の機関,138,3124
135.526483,34.62202794,東住吉区役所,ひがしすみよしくやくしょ,東住吉区役所（ひがしすみよしくやくしょ）,東住吉区東田辺1-13-4,東住吉区,06-4399-9986,06-6629-4533,,,http://www.city.osaka.lg.jp/higashisumiyoshi,http://www.osaka-bfmap.jp/sisetu_data/data/220101.php?bunrui=1&name=22.php,,,官公庁,市の機関,官公庁/市の機関,101,3125
135.5036528,34.62432217,阿倍野区社会福祉協議会,あべのくしゃかいふくしきょうぎかい,阿倍野区社会福祉協議会（あべのくしゃかいふくしきょうぎかい）,阿倍野区帝塚山1-3-8,阿倍野区,06-6628-1212,06-6628-9393,,,http://www.abenokushakyo.jp/,,,,官公庁,市の機関,官公庁/市の機関,138,1729
135.5408828,34.62033583,建設局平野工営所,けんせつきょくひらのこうえいしょ,建設局平野工営所（けんせつきょくひらのこうえいしょ）,平野区平野西1-4-29,平野区,06-6705-0102,06-6705-4794,,,http://www.city.osaka.lg.jp/kensetsu/page/0000059430.html,,,,官公庁,市の機関,官公庁/市の機関,108,2325
135.5461109,34.62112792,平野区役所,ひらのくやくしょ,平野区役所（ひらのくやくしょ）,平野区背戸口3-8-19,平野区,06-4302-9986,,,,,http://www.osaka-bfmap.jp/sisetu_data/data/230101.php?bunrui=1&name=23.php,,,官公庁,市の機関,官公庁/市の機関,101,2314
135.526644,34.63364392,水道局南部水道工事センター,すいどうきょくなんぶすいどうこうじせんたー,水道局南部水道工事センター（すいどうきょくなんぶすいどうこうじせんたー）,東住吉区北田辺4-10-28,東住吉区,06-6719-7852,06-6719-5570,漏水修繕、施工通知の受付・協議、配水管維持管理等,午前9時〜午後5時30分,http://www.city.osaka.lg.jp/suido/page/0000015040.html,,,,官公庁,市の機関,官公庁/市の機関,117,3152
135.5185167,34.63890308,阿倍野区役所・阿倍野区保健福祉センター,あべのくやくしょ・あべのくほけんふくしせんたー,阿倍野区役所・阿倍野区保健福祉センター（あべのくやくしょ・あべのくほけんふくしせんたー）,阿倍野区文の里1-1-40,阿倍野区,06-6622-9986,06-6621-1412,,,,,,,官公庁,市の機関,官公庁/市の機関,138,1610
135.5114499,34.64310286,阿倍野市民学習センター,あべのしみんがくしゅうせんたー,阿倍野市民学習センター（あべのしみんがくしゅうせんたー）,阿倍野区阿倍野筋3-10-1-300,阿倍野区,06-6634-7951,06-6634-7954,,,http://www.manabi.city.osaka.jp/Contents/lll/sisetu/inview.asp?CONTENTNO=660,,,,官公庁,市の機関,官公庁/市の機関,112,1694
135.509872,34.64338886,阿倍野防災センター,あべのぼうさいせんたー,阿倍野防災センター（あべのぼうさいせんたー）,阿倍野区阿倍野筋3−13−23,阿倍野区,06-6643-1031,,,,http://www.abeno-bosai-c.city.osaka.jp/bousai/bsw/a/a/bswaa010.aspx,http://www.osaka-bfmap.jp/sisetu_data/data/190401.php?bunrui=1&name=19.php,,,官公庁,市の機関,官公庁/市の機関,112,1728
135.5355973,34.64003314,環境局中部環境事業センター,かんきょうきょくちゅうぶかんきょうじぎょうせんたー,環境局中部環境事業センター（かんきょうきょくちゅうぶかんきょうじぎょうせんたー）,東住吉区杭全1-6-28,東住吉区,06-6714-6411,06-6714-7787,,,http://www.city.osaka.lg.jp/kankyo/page/0000010005.html,,,,官公庁,市の機関,官公庁/市の機関,112,3066
135.5415861,34.64039419,中央卸売市場東部市場,ちゅうおうおろしうりしじょうとうぶしじょう,中央卸売市場東部市場（ちゅうおうおろしうりしじょうとうぶしじょう）,東住吉区今林1-2-68,東住吉区,06-6756-390１,06-6756-3905,,,http://www.city.osaka.lg.jp/shijo/index.html,,,,官公庁,市の機関,官公庁/市の機関,159,3315
135.5646077,34.62588114,平野区役所加美出張所,ひらのくやくしょかみしゅっちょうしょ,平野区役所加美出張所（ひらのくやくしょかみしゅっちょうしょ）,平野区加美鞍作1-9-3,平野区,06-6791-0446,,,,,http://www.osaka-bfmap.jp/sisetu_data/data/230103.php?bunrui=1&name=23.php,,,官公庁,市の機関,官公庁/市の機関,101,2252
135.5596173,34.64157189,建設局平野下水処理場,けんせつきょくひらのげすいしょりじょう,建設局平野下水処理場（けんせつきょくひらのげすいしょりじょう）,平野区加美北2-6-69,平野区,06-6757-3309,06-6757-8631,,,,,,,官公庁,市の機関,官公庁/市の機関,117,2262
135.4310193,34.65219714,港湾局防災センター,こうわんきょくぼうさいせんたー,港湾局防災センター（こうわんきょくぼうさいせんたー）,港区築港2-8-24,港区,06-6572-2688,,,,,,,,官公庁,市の機関,官公庁/市の機関,112,2032
135.406537,34.66548794,環境局舞洲工場,まいしまこうじょう,環境局舞洲工場（まいしまこうじょう）,此花区北港白津1-2-48,此花区,6463-4153,6463-7101,,,http://www.city.osaka.lg.jp/kankyo/page/0000010125.html,,,,官公庁,市の機関,官公庁/市の機関,114,1501
135.4064003,34.66939711,建設局舞洲スラッジセンター,けんせつきょくまいしますらっじせんたー,建設局舞洲スラッジセンター（けんせつきょくまいしますらっじせんたー）,此花区北港白津2-2-7,此花区,6460-2830,6460-2052,,,http://www.city.osaka.lg.jp/kensetsu/page/0000010364.html,,,,官公庁,市の機関,官公庁/市の機関,140,1499
135.4460469,34.66164692,港・大正公園事務所,みなとたいしょうこうえんじむしょ,港・大正公園事務所（みなとたいしょうこうえんじむしょ）,港区田中3-1,港区,06-6571-0552,,,,,,,,官公庁,市の機関,官公庁/市の機関,154,2051
135.4455329,34.66199383,大阪市計量検査所,おおさかしけいりょうけんさしょ,大阪市計量検査所（おおさかしけいりょうけんさしょ）,港区田中3-1-126,港区,06-6577-5888,06-6577-5808,,,,,,,官公庁,市の機関,官公庁/市の機関,112,2053
135.4725558,34.65039403,大正区役所（合同庁舎）,たいしょうくやくしょ（ごうどうちょうしゃ）,大正区役所（合同庁舎）（たいしょうくやくしょ（ごうどうちょうしゃ））,大正区千島2-7-95,大正区,06-4394-9986,,,,,,,,官公庁,市の機関,官公庁/市の機関,101,3861
135.4725807,34.65034414,大正区保健福祉センター（合同庁舎）,たいしょうくほけんふくしせんたー（ごうどうちょうしゃ）,大正区保健福祉センター（合同庁舎）（たいしょうくほけんふくしせんたー（ごうどうちょうしゃ））,大正区千島2-7-95,大正区,06-6553-5121,,,,,,,,官公庁,市の機関,官公庁/市の機関,138,3862
135.4597831,34.66100297,建設局市岡下水処理場,けんせつきょくいちおかげすいしょりじょう,建設局市岡下水処理場（けんせつきょくいちおかげすいしょりじょう）,港区市岡2-15-25,港区,06-6571-3363,,,,,,,,官公庁,市の機関,官公庁/市の機関,117,1991
135.458222,34.66103881,建設局市岡工営所,けんせつきょくいちおかこうえいしょ,建設局市岡工営所（けんせつきょくいちおかこうえいしょ）,港区市岡2-15-74,港区,06-6576-0761,06-6576-2162,,,,,,,官公庁,市の機関,官公庁/市の機関,108,1993
135.4928083,34.66017506,環境局中部環境事業センター出張所,かんきょうきょくちゅうぶかんきょうじぎょうせんたーしゅっちょうじょ,環境局中部環境事業センター出張所（かんきょうきょくちゅうぶかんきょうじぎょうせんたーしゅっちょうじょ）,浪速区塩草2-1-1,浪速区,06-6567-0750,06-6567-0721,,,http://www.city.osaka.lg.jp/kankyo/page/0000010012.html,,,,官公庁,市の機関,官公庁/市の機関,112,2593
135.4994722,34.65941103,浪速区役所・浪速区保健福祉センター,なにわくやくしょ・なにわくほけんふくしせんたー,浪速区役所・浪速区保健福祉センター（なにわくやくしょ・なにわくほけんふくしせんたー）,浪速区敷津東1-4-20,浪速区,06-6647-9986,06-6633-8270,,,http://www.city.osaka.lg.jp/naniwa/,,,,官公庁,市の機関,官公庁/市の機関,138,2655
135.4605282,34.66383583,港区保健福祉センター,みなとくほけんふくしせんたー,港区保健福祉センター（みなとくほけんふくしせんたー）,港区市岡1-15-25,港区,06-6576-9882,,,,http://www.city.osaka.lg.jp/minato/,,,,官公庁,市の機関,官公庁/市の機関,138,1980
135.460667,34.66388608,港区役所,みなとくやくしょ,港区役所（みなとくやくしょ）,港区市岡1-15-25,港区,06-6576-9986,,,,http://www.city.osaka.lg.jp/minato/,http://www.osaka-bfmap.jp/sisetu_data/data/070101.php?bunrui=1&name=7.php,,,官公庁,市の機関,官公庁/市の機関,101,1981
135.4609918,34.66936386,大阪市契約管財局,おおさかしけいやくかんざいきょく,大阪市契約管財局（おおさかしけいやくかんざいきょく）,港区弁天1-2-1-1300,港区,06-4395-7111（代表）,06-4395-7160,,,http://www.city.osaka.lg.jp/keiyakukanzai/index.html,,,,官公庁,市の機関,官公庁/市の機関,112,1051
135.4605471,34.67005317,弁天町市民学習センター,べんてんちょうしみんがくしゅうせんたー,弁天町市民学習センター（べんてんちょうしみんがくしゅうせんたー）,港区弁天1-2-2-700,港区,06-6577-1430,,,,http://www.osakademanabu.com/bentencho/,,,,官公庁,市の機関,官公庁/市の機関,112,1055
135.4606549,34.67021536,弁天町市税事務所,べんてんちょうしぜいじむしょ,弁天町市税事務所（べんてんちょうしぜいじむしょ）,港区弁天1-2-2-100 オーク200 2番街1階,港区,06-4395-2948,06-4395-2905,,,http://www.city.osaka.lg.jp/zaisei/page/0000007585.html,,,,官公庁,市の機関,官公庁/市の機関,106,11487
135.4614391,34.66883894,大阪市教育センター,おおさかしきょういくせんたー,大阪市教育センター（おおさかしきょういくせんたー）,港区弁天1-1-6,港区,06-6572-0263,,,,http://www.ocec.jp/center/,,,,官公庁,市の機関,官公庁/市の機関,112,1050
135.4742839,34.66965422,大阪市交通局,おおさかしこうつうきょく,大阪市交通局（おおさかしこうつうきょく）,西区九条南1-12-62,西区,06-6582-1400(市営交通案内センター）,06-6585-6466,,,http://www.kotsu.city.osaka.jp/,,,,官公庁,市の機関,官公庁/市の機関,140,4785
135.4950249,34.66607792,難波市民学習センター,なんばしみんがくしゅうせんたー,難波市民学習センター（なんばしみんがくしゅうせんたー）,浪速区湊町1-4-1 OCATビル4F,浪速区,06-6643-7010,06-6643-7050,,,http://www.osakademanabu.com/namba/,,,,官公庁,市の機関,官公庁/市の機関,146,2665
135.4950309,34.66626706,なんば市税事務所,なんばしぜいじむしょ,なんば市税事務所（なんばしぜいじむしょ）,浪速区湊町1-4-1　大阪シティエアターミナルビル（OCAT）5階,浪速区,06-4397-2948,06-4397-2905,,,http://www.city.osaka.lg.jp/zaisei/page/0000030793.html,,,,官公庁,市の機関,官公庁/市の機関,106,4062
135.5003953,34.66716328,難波サービスカウンター,なんばさーびすかうんたー,難波サービスカウンター（なんばさーびすかうんたー）,中央区難波1-9-7,中央区,06-6211-0874,,,,,,,,官公庁,市の機関,官公庁/市の機関,112,9011
135.4753949,34.67186917,水道局西部水道工事センター（境川分室）,すいどうきょくせいぶすいどうこうじせんたー（さかいがわぶんしつ）06-6581-9996,水道局西部水道工事センター（境川分室）（すいどうきょくせいぶすいどうこうじせんたー（さかいがわぶんしつ）06-6581-9996）,西区九条南1-4-18（境川営業所内）,西区,06-6581-9996,06-6531-9226,配水管の工事関係,午前9時〜午後5時30分,http://www.city.osaka.lg.jp/suido/page/0000015040.html,,,,官公庁,市の機関,官公庁/市の機関,117,19209
135.4807922,34.66893203,建設局 河川・渡船管理事務所,けんせつきょくかせん・とせんかんりじむしょ,建設局 河川・渡船管理事務所（けんせつきょくかせん・とせんかんりじむしょ）,西区南堀江4-33-27,西区,6536-5295,6536-5305,,9時〜17時30分,,,,,官公庁,市の機関,官公庁/市の機関,108,19304
135.4834326,34.67224039,水道局西部水道工事センター,すいどうきょくせいぶすいどうこうじせんたー,水道局西部水道工事センター（すいどうきょくせいぶすいどうこうじせんたー）,西区南堀江4-12-26,西区,06-6531-9213,06-6531-9226,漏水修繕、施工通知の受付・協議、配水管維持管理等,午前9時〜午後5時30分,http://www.city.osaka.lg.jp/suido/page/0000015040.html,,,,官公庁,市の機関,官公庁/市の機関,117,19207
135.4413328,34.68530011,交通局自動車部酉島営業所,こうつうきょくじどうしゃぶとりしまえいぎょうしょ,交通局自動車部酉島営業所（こうつうきょくじどうしゃぶとりしまえいぎょうしょ）,此花区酉島4-1-11,此花区,6461-2325,6461-6074,,,http://www.kotsu.city.osaka.jp/eigyou/shisetsu/bus/bus_eigyousyo_list.html,,,,官公庁,市の機関,官公庁/市の機関,112,1315
135.4297209,34.69787733,西島保管所,にしじまほかんじょ,西島保管所（にしじまほかんじょ）,西淀川区西島１−２−１５,西淀川区,,,,,,,,,官公庁,市の機関,官公庁/市の機関,206,19140
135.4352422,34.70058117,建設局大野下水処理場,けんせつきょくおおのげすいしょりじょう,建設局大野下水処理場（けんせつきょくおおのげすいしょりじょう）,西淀川区大野2-4-117,西淀川区,06-6474-5788,,,,,,,,官公庁,市の機関,官公庁/市の機関,117,3723
135.4391856,34.69813656,市営住宅大野　1号館,しえいじゅうたくおおの　いちごうかん,市営住宅大野　1号館（しえいじゅうたくおおの　いちごうかん）,西淀川区大野3−7−11,西淀川区,,,,,,,,,官公庁,市の機関,官公庁/市の機関,145,19386
135.4413079,34.70355594,環境局西北環境事業センター,かんきょうきょくせいほくかんきょうじぎょうせんたー,環境局西北環境事業センター（かんきょうきょくせいほくかんきょうじぎょうせんたー）,西淀川区大和田2丁目5番66号,西淀川区,06-6477-1621,,,,,,,,官公庁,市の機関,官公庁/市の機関,112,19
135.4418859,34.702056,環境局西淀工場,かんきょうきょくにしよどこうじょう,環境局西淀工場（かんきょうきょくにしよどこうじょう）,西淀川区大和田2-5-68,西淀川区,06-6472-3000,,,,,,,,官公庁,市の機関,官公庁/市の機関,112,3796
135.4456622,34.70242011,市営住宅姫島第1　1号館,しえいじゅうたくひめじまだいいち　いちごうかん,市営住宅姫島第1　1号館（しえいじゅうたくひめじまだいいち　いちごうかん）,西淀川区姫島6−10,西淀川区,,,,,,,,,官公庁,市の機関,官公庁/市の機関,145,19381
135.4433102,34.70424867,市営住宅大和田第3　6号館,しえいじゅうたくおおわだだいさん　ろくごうかん,市営住宅大和田第3　6号館（しえいじゅうたくおおわだだいさん　ろくごうかん）,西淀川区大和田2−4,西淀川区,,,,,,,,,官公庁,市の機関,官公庁/市の機関,145,19384
135.4521328,34.68304417,此花区保健福祉センター,このはなくほけんふくしせんたー,此花区保健福祉センター（このはなくほけんふくしせんたー）,此花区春日出北1-8-4,此花区,6466-9857,6462-0942,,,http://www.city.osaka.lg.jp/konohana/,http://www.osaka-bfmap.jp/sisetu_data/data/040101.php?bunrui=1&name=4.php,,,官公庁,市の機関,官公庁/市の機関,138,955
135.4523221,34.68312506,此花区役所,このはなくやくしょ,此花区役所（このはなくやくしょ）,此花区春日出北1-8-4,此花区,6466-9986,6462-0942,,,http://www.city.osaka.lg.jp/konohana/,http://www.osaka-bfmap.jp/sisetu_data/data/040101.php?bunrui=1&name=4.php,,,官公庁,市の機関,官公庁/市の機関,101,956
135.4832581,34.67785319,環境局河川事務所,かんきょうきょくかせんじむしょ,環境局河川事務所（かんきょうきょくかせんじむしょ）,西区新町4-20-3,西区,06-6531-3950,,,,,,,,官公庁,市の機関,官公庁/市の機関,112,4777
135.4859921,34.67643294,西区保健福祉センター,にしくほけんふくしせんたー,西区保健福祉センター（にしくほけんふくしせんたー）,西区新町4-5-14,西区,06-6532-9986,,,,,,,,官公庁,市の機関,官公庁/市の機関,138,4778
135.4859921,34.67632508,西区役所,にしくやくしょ,西区役所（にしくやくしょ）,西区新町4-5-14,西区,06-6532-9986,,,,http://www.city.osaka.lg.jp/nishi/,http://www.osaka-bfmap.jp/sisetu_data/data/060101.php?bunrui=1&name=6.php,,,官公庁,市の機関,官公庁/市の機関,101,4779
135.4877573,34.68067697,大阪市人権啓発・相談センター,おおさかしじんけんけいはつ・そうだんせんたー,大阪市人権啓発・相談センター（おおさかしじんけんけいはつ・そうだんせんたー）,西区立売堀4-10-18 阿波座センタービル１階,西区,06-6532-7631,06-6532-7640,,,http://www.city.osaka.lg.jp/shimin/page/0000095095.html,,,,官公庁,市の機関,官公庁/市の機関,118,9012
135.4878321,34.68064928,市立更生相談所分室（緊急入院保護業務センター）,しりつこうせいそうだんしょぶんしつ（きんきゅうにゅういんほごぎょうむせんたー）,市立更生相談所分室（緊急入院保護業務センター）（しりつこうせいそうだんしょぶんしつ（きんきゅうにゅういんほごぎょうむせんたー））,大阪市西区立売堀4丁目10番18号,西区,06-6543-7211,,,,,,,,官公庁,市の機関,官公庁/市の機関,118,19316
135.4801077,34.68577508,中央卸売市場本場,ちゅうおうおろしうりしじょうほんじょう,中央卸売市場本場（ちゅうおうおろしうりしじょうほんじょう）,福島区野田1-1-86,福島区,06-6469-7955,06-6469-7979,,,http://www.city.osaka.lg.jp/shijo/index.html,,,,官公庁,市の機関,官公庁/市の機関,140,3571
135.4917438,34.68489236,ゆとりとみどり振興局西部方面公園事務所,ゆとりとみどりしんこうきょくせいぶほうめんこうえんじむしょ,ゆとりとみどり振興局西部方面公園事務所（ゆとりとみどりしんこうきょくせいぶほうめんこうえんじむしょ）,西区靱本町2-1-4,西区,06-6441-6748,06-6441-6797,(公園や街路樹),,http://www.city.osaka.lg.jp/yutoritomidori/page/0000009694.html,,,,官公庁,市の機関,官公庁/市の機関,140,4783
135.4627172,34.69305806,建設局海老江工営所,けんせつきょくえびえこうえいしょ,建設局海老江工営所（けんせつきょくえびえこうえいしょ）,此花区高見1-2-47,此花区,6462-1437,6462-1976,,,http://www.city.osaka.lg.jp/kensetsu/page/0000057468.html,,,,官公庁,市の機関,官公庁/市の機関,108,1131
135.4626613,34.693208,建設局北部方面管理事務所,けんせつきょくほくぶほうめんかんりじむしょ,建設局北部方面管理事務所（けんせつきょくほくぶほうめんかんりじむしょ）,此花区高見1-2-47,此花区,6462-1434,6463-4330,,,http://www.city.osaka.lg.jp/kensetsu/page/0000057431.html,,,,官公庁,市の機関,官公庁/市の機関,112,1132
135.4722277,34.69230283,福島区役所,ふくしまくやくしょ,福島区役所（ふくしまくやくしょ）,福島区大開1-8-1,福島区,06-6464-9986,,,,http://www.city.osaka.lg.jp/fukushima/,http://www.osaka-bfmap.jp/sisetu_data/data/030101.php?bunrui=1&name=3.php,,,官公庁,市の機関,官公庁/市の機関,101,3522
135.4610544,34.70358031,市営住宅姫里　1号館,しえいじゅうたくひめさと　いちごうかん,市営住宅姫里　1号館（しえいじゅうたくひめさと　いちごうかん）,西淀川区姫里1−3−41,西淀川区,,,,,,,,,官公庁,市の機関,官公庁/市の機関,145,19385
135.5004013,34.69099436,アイ・スポット,あいすぽっと,アイ・スポット（あいすぽっと）,中央区今橋４−１−１,中央区,06−4866−6803,06−4866−6803,,１１：００〜２０：００,http://www.city.osaka.lg.jp/keikakuchosei/page/0000018184.html,,,,官公庁,市の機関,官公庁/市の機関,112,19203
135.4976673,34.70048589,梅田サービスカウンター,うめださーびすかうんたー,梅田サービスカウンター（うめださーびすかうんたー）,北区梅田1丁目 　ダイヤモンド地下街,北区,06-6345-0874,,,,,,,,官公庁,市の機関,官公庁/市の機関,112,166
135.4979193,34.69880014,総合生涯学習センター,そうごうしょうがいがくしゅうせんたー,総合生涯学習センター（そうごうしょうがいがくしゅうせんたー）,北区梅田1-2-2-500,北区,06-6345-5000,,,,,,,,官公庁,市の機関,官公庁/市の機関,112,269
135.4980574,34.69867128,梅田住宅管理センター,うめだじゅうたくかんりせんたー,梅田住宅管理センター（うめだじゅうたくかんりせんたー）,北区梅田１−２−２−７００　大阪駅前第２ビル７階,北区,06-6343-5012,06-6343-5013,,,,,,,官公庁,市の機関,官公庁/市の機関,112,11485
135.4981335,34.69901322,梅田市税事務所,うめだしぜいじむしょ,梅田市税事務所（うめだしぜいじむしょ）,北区梅田1-2-2-700 大阪駅前第2ビル7階,北区,06-4797-2948,06-4797-2905,,,http://www.city.osaka.lg.jp/zaisei/page/0000006751.html,,,,官公庁,市の機関,官公庁/市の機関,106,11486
135.4979853,34.69891242,キャンパスポート大阪,きゃんぱすぽーとおおさか,キャンパスポート大阪（きゃんぱすぽーとおおさか）,北区梅田1-2-2-400　大阪駅前第２ビル４階,北区,,,大学と連携した人材育成中核拠点,,,,,,官公庁,市の機関,官公庁/市の機関,112,19130
135.5031387,34.64661881,市立更生相談所,しりつこうせいそうだんしょ,市立更生相談所（しりつこうせいそうだんしょ）,西成区太子1丁目15番17号,西成区,06-6649-4900,,,,,,,,官公庁,市の機関,官公庁/市の機関,118,4853
135.509903,34.64689189,阿倍野住宅管理センター,あべのじゅうたくかんりせんたー,阿倍野住宅管理センター（あべのじゅうたくかんりせんたー）,阿倍野区旭町1−2−7−500あべのメディックス501号,阿倍野区,06-6649-1103,06-6649-119１,市営住宅,,,,,,官公庁,市の機関,官公庁/市の機関,112,1686
135.5097467,34.64698906,大阪市保健所,おおさかしほけんじょ,大阪市保健所（おおさかしほけんじょ）,阿倍野区旭町1丁目2番7-1000号　あべのメディックス10・11階,阿倍野区,06-6647-0641,06-6647-0803,,,http://www.city.osaka.lg.jp/kenkofukushi/page/0000008442.html,,,,官公庁,市の機関,官公庁/市の機関,135,1707
135.5133188,34.64789989,天王寺サービスカウンター,てんのうじさーびすかうんたー,天王寺サービスカウンター（てんのうじさーびすかうんたー）,天王寺区堀越町アベノ地下街6号,天王寺区,06-6773-0874,,,,,,,,官公庁,市の機関,官公庁/市の機関,112,2709
135.5101179,34.64698758,あべの市税事務所,あべのしぜいじむしょ,あべの市税事務所（あべのしぜいじむしょ）,阿倍野区旭町1-2-7-702 あべのメディックス7階,阿倍野区,06-4396-2948,06-4396-2905,,,http://www.city.osaka.lg.jp/zaisei/page/0000006606.html,,,,官公庁,市の機関,官公庁/市の機関,106,11488
135.519272,34.65786114,天王寺区役所・天王寺区保健福祉センター,てんのうじくやくしょ・てんのうじくほけんふくしせんたー,天王寺区役所・天王寺区保健福祉センター（てんのうじくやくしょ・てんのうじくほけんふくしせんたー）,天王寺区真法院町20-33,天王寺区,06-6774-9986,,,,http://www.city.osaka.lg.jp/tennoji/,http://www.osaka-bfmap.jp/sisetu_data/data/090101.php?bunrui=1&name=9.php,,,官公庁,市の機関,官公庁/市の機関,138,4301
135.534361,34.65362517,生野区保健福祉センター,いくのくほけんふくしせんたー,生野区保健福祉センター（いくのくほけんふくしせんたー）,生野区勝山南3丁目1番19号,生野区,,,,,http://www.city.osaka.lg.jp/ikuno/page/0000000473.html,,,,官公庁,市の機関,官公庁/市の機関,138,4529
135.5342047,34.6537375,都市整備局生野南部事務所,としせいびきょくいくのなんぶじむしょ,都市整備局生野南部事務所（としせいびきょくいくのなんぶじむしょ）,生野区勝山南3-1-19（生野区役所5階）,生野区,06-6717-8266,06-6717-8251,,,http://www.city.osaka.lg.jp/toshiseibi/page/0000028545.html,,,,官公庁,市の機関,官公庁/市の機関,108,4611
135.534361,34.65371903,生野区役所(区災害対策本部),いくのくやくしょ,生野区役所(区災害対策本部)（いくのくやくしょ）,生野区勝山南3丁目1番19号,生野区,06-6715-9986,06-6717-1160,,,http://www.city.osaka.lg.jp/ikuno/page/0000000473.html,,,,官公庁,市の機関,官公庁/市の機関,101,4768
135.5486361,34.65312194,環境局東部環境事業センター,かんきょうきょくとうぶかんきょうじぎょうせんたー,環境局東部環境事業センター（かんきょうきょくとうぶかんきょうじぎょうせんたー）,生野区巽中1丁目1番4号,生野区,06-6751-5311,06-6753-3041,(ごみ),,http://www.city.osaka.lg.jp/kankyo/page/0000010028.html,,,,官公庁,市の機関,官公庁/市の機関,112,4623
135.543794,34.65198097,建設局田島工営所,けんせつきょくたじまこうえいしょ,建設局田島工営所（けんせつきょくたじまこうえいしょ）,生野区田島1丁目17番13号,生野区,06-6751-5000,06-6751-5065,(下水),,http://www.city.osaka.lg.jp/kensetsu/page/0000057468.html,,,,官公庁,市の機関,官公庁/市の機関,108,4720
135.5168283,34.6616,天王寺区保健福祉センター（分館）,てんのうじくほけんふくしせんたーぶんかん,天王寺区保健福祉センター（分館）（てんのうじくほけんふくしせんたーぶんかん）,天王寺区上汐4-3-2,天王寺区,,,,,,http://www.osaka-bfmap.jp/sisetu_data/data/090102.php?bunrui=1&name=9.php,,,官公庁,市の機関,官公庁/市の機関,138,4276
135.52855,34.66412806,中央授産場,ちゅうおうじゅさんじょう,中央授産場（ちゅうおうじゅさんじょう）,天王寺区東上町4番17号,天王寺区,06-6772-4771,,障害者の就労・生活自立支援,,,,,,官公庁,市の機関,官公庁/市の機関,138,4328
135.5286033,34.662978,市立環境科学研究所,しりつかんきょうかがくけんきゅうじょ,市立環境科学研究所（しりつかんきょうかがくけんきゅうじょ）,天王寺区東上町8番34号,天王寺区,06-6771-8331,,,,http://www.city.osaka.lg.jp/shisei_top/category/893-33-4-0-0.html,,,,官公庁,市の機関,官公庁/市の機関,140,4329
135.5413638,34.66981897,東成区役所,ひがしなりくやくしょ,東成区役所（ひがしなりくやくしょ）,東成区大今里西２丁目８番４号,東成区,06-6977-9986,06-6972-2732,,,http://www.city.osaka.lg.jp/higashinari/,http://www.osaka-bfmap.jp/sisetu_data/data/140101.php?bunrui=1&name=14.php,,,官公庁,市の機関,官公庁/市の機関,101,3493
135.5409495,34.67166894,東成区保健福祉センター分館,ひがしなりくほけんふくしせんたーぶんかん,東成区保健福祉センター分館（ひがしなりくほけんふくしせんたーぶんかん）,東成区大今里西1丁目19番29号,東成区,,,,,,http://www.osaka-bfmap.jp/sisetu_data/data/140102.php?bunrui=1&name=14.php,,,官公庁,市の機関,官公庁/市の機関,101,8512
135.5409521,34.67168003,動物愛護相談室,どうぶつあいごそうだんしつ,動物愛護相談室（どうぶつあいごそうだんしつ）,東成区大今里西1丁目19番29号,東成区,06-6978-7710,06-6972-9154,,,,,,,官公庁,市の機関,官公庁/市の機関,121,8513
135.5412796,34.67066933,水道局南部水道工事センター（今里分室）,すいどうきょくなんぶすいどうこうじせんたー（いまざとぶんしつ）,水道局南部水道工事センター（今里分室）（すいどうきょくなんぶすいどうこうじせんたー（いまざとぶんしつ））,東成区大今里西1-22-13（今里営業所内）,東成区,06-6972-4136,06-6972-4139,配水管の工事関係,午前9時〜午後5時30分,http://www.city.osaka.lg.jp/suido/page/0000015040.html,,,,官公庁,市の機関,官公庁/市の機関,117,19211
135.507396,34.68192836,船場法人市税事務所,せんばほうじんしぜいじむしょ,船場法人市税事務所（せんばほうじんしぜいじむしょ）,中央区船場中央1-4-3-203 船場センタービル3号館2階 北側,中央区,06-4705-2948,06-4705-2905,,,http://www.city.osaka.lg.jp/zaisei/page/0000006614.html,,,,官公庁,市の機関,官公庁/市の機関,106,11490
135.5099562,34.68131708,中央区役所,ちゅうおうくやくしょ,中央区役所（ちゅうおうくやくしょ）,中央区久太郎町1-2-27,中央区,06-6267-9625,06-6264-8283,,,http://www.city.osaka.lg.jp./chuo/,http://www.osaka-bfmap.jp/sisetu_data/data/050101.php?bunrui=1&name=5.php,,,官公庁,市の機関,官公庁/市の機関,101,1147
135.5099562,34.68100608,中央区保健福祉センター,ちゅうおうくほけんふくしせんたー,中央区保健福祉センター（ちゅうおうくほけんふくしせんたー）,中央区久太郎町1-2-27,中央区,06-6267-9882,06-6267-0998,,,http://www.city.osaka.lg.jp/chuo/,,,,官公庁,市の機関,官公庁/市の機関,138,1563
135.5322306,34.68188108,東部方面公園事務所,とうぶほうめんこうえんじむしょ,東部方面公園事務所（とうぶほうめんこうえんじむしょ）,中央区大阪城3-11大阪城公園内,中央区,06-6941-1144,,(公園や街路樹),,http://www.city.osaka.lg.jp/yutoritomidori/page/0000009694.html,,,,官公庁,市の機関,官公庁/市の機関,154,1148
135.5370836,34.68477603,市立工業研究所,しりつこうぎょうけんきゅうしょ,市立工業研究所（しりつこうぎょうけんきゅうしょ）,城東区森之宮1-6-50,城東区,06-6963-8011,,,,http://www.omtri.or.jp//,,,,官公庁,市の機関,官公庁/市の機関,140,5154
135.5373018,34.68894983,環境局森之宮工場,かんきょうきょくもりのみやこうじょう,環境局森之宮工場（かんきょうきょくもりのみやこうじょう）,城東区森之宮1-6-11,城東区,06-6967-3131,06-6969-7938,,,http://www.city.osaka.lg.jp/kankyo/page/0000010061.html,,,,官公庁,市の機関,官公庁/市の機関,108,5153
135.5550359,34.68564211,建設局放出下水処理場,けんせつきょくはなてんげすいしょりじょう,建設局放出下水処理場（けんせつきょくはなてんげすいしょりじょう）,城東区永田2-3-61,城東区,06-6961-9300,06-6967-4731,,,http://www.city.osaka.lg.jp/kensetsu/page/0000012065.html,,,,官公庁,市の機関,官公庁/市の機関,117,5066
135.5449501,34.68754122,建設局中浜工営所,けんせつきょくなかはまこうえいしょ,建設局中浜工営所（けんせつきょくなかはまこうえいしょ）,城東区中浜1-17-10,城東区,06-6969-2656,06-6969-6201,,,http://www.city.osaka.lg.jp/kensetsu/page/0000057468.html,,,,官公庁,市の機関,官公庁/市の機関,108,5187
135.5447857,34.68760289,建設局東部方面管理事務所,けんせつきょくとうぶほうめんかんりじむしょ,建設局東部方面管理事務所（けんせつきょくとうぶほうめんかんりじむしょ）,城東区中浜1-17-10,城東区,06-6969-5841,06-6967-3531,,,http://www.city.osaka.lg.jp/kensetsu/page/0000012065.html,,,,官公庁,市の機関,官公庁/市の機関,112,5188
135.5448645,34.68753828,建設局中浜下水処理場,けんせつきょくなかはまげすいしょりじょう,建設局中浜下水処理場（けんせつきょくなかはまげすいしょりじょう）,城東区中浜1-17-10,城東区,06-6969-5841,06-6967-3531,,,http://www.city.osaka.lg.jp/kensetsu/page/0000012065.html,,,,官公庁,市の機関,官公庁/市の機関,117,9002
135.5020028,34.6938,大阪市役所,おおさかしやくしょ,大阪市役所（おおさかしやくしょ）,北区中之島1-3-20,北区,06-6208-8181,,,,http://www.city.osaka.lg.jp/,http://www.osaka-bfmap.jp/sisetu_data/data/010201.php?bunrui=1&name=1.php,,,官公庁,市の機関,官公庁/市の機関,100,116
135.5077558,34.70422208,ゆとりとみどり振興局北部方面公園事務所,ゆとりとみどりしんこうきょくほくぶほうめんこうえんじむしょ,ゆとりとみどり振興局北部方面公園事務所（ゆとりとみどりしんこうきょくほくぶほうめんこうえんじむしょ）,北区扇町1-1-21,北区,06-6312-8121,,(公園や街路樹の維持管理),,,,,,官公庁,市の機関,官公庁/市の機関,154,267
135.5138531,34.70367483,環境局北部環境事業センター,かんきょうきょくほくぶかんきょうじぎょうせんたー,環境局北部環境事業センター（かんきょうきょくほくぶかんきょうじぎょうせんたー）,北区同心2-8-14,北区,06-6351-4000,,(ごみの処理・美化推進等),,,,,,官公庁,市の機関,官公庁/市の機関,112,167
135.5281026,34.70122183,都島区役所・都島区保健福祉センター,みやこじまくやくしょ・みやこじまくほけんふくしせんたー,都島区役所・都島区保健福祉センター（みやこじまくやくしょ・みやこじまくほけんふくしせんたー）,都島区中野町2-16-20,都島区,06-6882-9625,,,,,,,,官公庁,市の機関,官公庁/市の機関,138,2973
135.5328471,34.69536692,京橋市税事務所,きょうばししぜいじむしょ,京橋市税事務所（きょうばししぜいじむしょ）,都島区片町2-2-48　JEI京橋ビル4階,都島区,06-4801-2948,06-4801-2905,,,http://www.city.osaka.lg.jp/zaisei/page/0000007619.html,,,,官公庁,市の機関,官公庁/市の機関,106,3065
135.5459688,34.70201686,城東区役所,じょうとうくやくしょ,城東区役所（じょうとうくやくしょ）,城東区中央3-4-29,城東区,06-6930-9986,06-6932-0979,,,http://www.city.osaka.lg.jp/joto/,http://www.osaka-bfmap.jp/sisetu_data/data/170101.php?bunrui=1&name=17.php,,,官公庁,市の機関,官公庁/市の機関,101,5176
135.543513,34.70242453,城東区保健福祉センター分館（仮庁舎）,じょうとうくほけんふくしせんたーぶんかん（かりちょうしゃ）,城東区保健福祉センター分館（仮庁舎）（じょうとうくほけんふくしせんたーぶんかん（かりちょうしゃ））,城東区中央2-11-23　1階,城東区,06-6930-9986,06-6932-0979,平成24年4月1日より供用開始,,http://www.city.osaka.lg.jp/joto/,,,,官公庁,市の機関,官公庁/市の機関,101,19397
135.5567156,34.69670781,建設局今福下水処理場,けんせつきょくいまふくげすいしょりじょう,建設局今福下水処理場（けんせつきょくいまふくげすいしょりじょう）,城東区今福南3-3-2,城東区,06-6939-7667,06-6939-2731,,,http://www.city.osaka.lg.jp/kensetsu/page/0000012065.html,,,,官公庁,市の機関,官公庁/市の機関,117,5124
135.5740609,34.70409394,鶴見区保健福祉センター,つるみくほけんふくしせんたー,鶴見区保健福祉センター（つるみくほけんふくしせんたー）,鶴見区横堤5-4-19,鶴見区,06-6915-9882,06-6913-8140,(保健衛生・環境),,http://www.city.osaka.lg.jp/tsurumi/,,,,官公庁,市の機関,官公庁/市の機関,138,4071
135.5741357,34.70435797,鶴見区役所,つるみくやくしょ,鶴見区役所（つるみくやくしょ）,鶴見区横堤5-4-19,鶴見区,06-6915-9625,06-6913-6235,区政全般,,hhttp://www.city.osaka.lg.jp/tsurumi/,http://www.osaka-bfmap.jp/sisetu_data/data/180101.php?bunrui=1&name=18.php,,,官公庁,市の機関,官公庁/市の機関,101,4072
135.6318008,34.63970981,環境局八尾工場,かんきょうきょくやおこうじょう,環境局八尾工場（かんきょうきょくやおこうじょう）,八尾市上尾町7-1,大阪市以外,072-923-4226,072-997-9481,,,,,,,官公庁,市の機関,官公庁/市の機関,114,9009
135.4424485,34.70693531,市営住宅大和田第1　1号館,しえいじゅうたくおおわだだいいち　いちごうかん,市営住宅大和田第1　1号館（しえいじゅうたくおおわだだいいち　いちごうかん）,西淀川区大和田5−3−10,西淀川区,,,,,,,,,官公庁,市の機関,官公庁/市の機関,145,19382
135.4427012,34.70632236,市営住宅大和田第1　2号館,しえいじゅうたくおおわだだいいち　にごうかん,市営住宅大和田第1　2号館（しえいじゅうたくおおわだだいいち　にごうかん）,西淀川区大和田5−2−20,西淀川区,,,,,,,,,官公庁,市の機関,官公庁/市の機関,145,19383
135.4508568,34.70915553,市営住宅神崎川　2号館,しえいじゅうたくかんざきがわ　にごうかん,市営住宅神崎川　2号館（しえいじゅうたくかんざきがわ　にごうかん）,西淀川区千舟3−4,西淀川区,,,,,,,,,官公庁,市の機関,官公庁/市の機関,145,19388
135.4503777,34.70939,市営住宅神崎川　1号館,しえいじゅうたくかんざきがわ　いちごうかん,市営住宅神崎川　1号館（しえいじゅうたくかんざきがわ　いちごうかん）,西淀川区千舟3−4,西淀川区,,,,,,,,,官公庁,市の機関,官公庁/市の機関,145,19387
135.4560688,34.71136386,西淀川区役所,にしよどがわくやくしょ,西淀川区役所（にしよどがわくやくしょ）,西淀川区御幣島1丁目2番10号,西淀川区,06-6478-9986,,,,,http://www.osaka-bfmap.jp/sisetu_data/data/110101.php?bunrui=1&name=11.php,,,官公庁,市の機関,官公庁/市の機関,101,3647
135.477022,34.71752817,ゆとりとみどり振興局十三公園事務所,ゆとりとみどりしんこうきょくじゅうそうこえんじむしょ,ゆとりとみどり振興局十三公園事務所（ゆとりとみどりしんこうきょくじゅうそうこえんじむしょ）,淀川区十三元今里1-1-41,淀川区,06-6309-0008,,,,,,,,官公庁,市の機関,官公庁/市の機関,154,2461
135.4868579,34.72113106,淀川区役所・区保健福祉センター,よどがわくやくしょ・くほけんふくしせんたー,淀川区役所・区保健福祉センター（よどがわくやくしょ・くほけんふくしせんたー）,淀川区十三東２−３−３,淀川区,06-6308-9986,06-6885-0534,,,http://www.city.osaka.lg.jp/yodogawa/index.html,,,,官公庁,市の機関,官公庁/市の機関,101,2475
135.4817813,34.72632189,建設局十三工営所,けんせつきょくじゅうそうこうえいしょ,建設局十三工営所（けんせつきょくじゅうそうこうえいしょ）,淀川区野中南2-8-41,淀川区,06-6306-1881,06-6306-0122,,,http://www.city.osaka.lg.jp/kensetsu/page/0000059430.html,,,,官公庁,市の機関,官公庁/市の機関,108,2565
135.4807329,34.73287783,水道局北部水道工事センター,すいどうきょくほくぶすいどうこうじせんたー,水道局北部水道工事センター（すいどうきょくほくぶすいどうこうじせんたー）,淀川区新高1-6-19,淀川区,06-6391-6303,06-6391-7463,漏水修繕、施工通知の受付・協議、配水管維持管理等,午前9時〜午後5時30分,http://www.city.osaka.lg.jp/suido/page/0000015040.html,,,,官公庁,市の機関,官公庁/市の機関,117,2489
135.4887389,34.73617517,都市整備局三国東土地区画整理事務所,としせいびきょくみくにひがしとちくかくせいりじむしょ,都市整備局三国東土地区画整理事務所（としせいびきょくみくにひがしとちくかくせいりじむしょ）,淀川区西宮原2-6-54,淀川区,06-6399-1392,06-6399-1476,,,,,,,官公庁,市の機関,官公庁/市の機関,108,2504
135.4967113,34.74726103,建設局十八条下水処理場,けんせつきょくじゅうはちじょうげすいしょりじょう,建設局十八条下水処理場（けんせつきょくじゅうはちじょうげすいしょりじょう）,淀川区十八条1-8-1,淀川区,06-6399-6469,,,,,,,,官公庁,市の機関,官公庁/市の機関,117,2484
135.5100223,34.70567508,北区役所,きたくやくしょ,北区役所（きたくやくしょ）,北区扇町2-1-27,北区,06-6313-9986,,,,http://www.city.osaka.lg.jp/kita/,http://www.osaka-bfmap.jp/sisetu_data/data/010101.php?bunrui=1&name=1.php,,,官公庁,市の機関,官公庁/市の機関,101,165
135.5100223,34.70548306,北区保健福祉センター,きたくほけんふくしせんたー,北区保健福祉センター（きたくほけんふくしせんたー）,北区扇町2-1-27,北区,06-6313-9882,,,,,,,,官公庁,市の機関,官公庁/市の機関,138,1805
135.5116332,34.71041092,住まい情報センター,すまいじょうほうせんたー,住まい情報センター（すまいじょうほうせんたー）,北区天神橋6-4-20,北区,06-6242-1160,06-6354-8601,,,http://www.sumai.city.osaka.jp/,,,,官公庁,市の機関,官公庁/市の機関,112,270
135.522485,34.70804375,大阪市こころの健康センター,おおさかしこころのけんこうせんたー,大阪市こころの健康センター（おおさかしこころのけんこうせんたー）,都島区中野町5丁目15番21号　都島センタービル3階,都島区,06-6922-8520,06-6922-8526,,,http://www.city.osaka.lg.jp/kenkofukushi/category/716-2-0-0-0.html,http://www.osaka-bfmap.jp/sisetu_data/data/020201.php?bunrui=1&name=2.php,,,官公庁,市の機関,官公庁/市の機関,138,1756
135.5221832,34.70807811,都島区保健福祉センター分館,みやこじまくほけんふくしせんたーぶんかん,都島区保健福祉センター分館（みやこじまくほけんふくしせんたーぶんかん）,都島区中野町5-15-21,都島区,06-6882-9882,,,,,,,,官公庁,市の機関,官公庁/市の機関,138,2987
135.5324611,34.70708706,水道局東部水道工事センター,すいどうきょくとうぶすいどうこうじせんたー,水道局東部水道工事センター（すいどうきょくとうぶすいどうこうじせんたー）,都島区都島本通4-12-4,都島区,06-6927-8774,06-6927-8774,漏水修繕、施工通知の受付・協議、配水管維持管理等,午前9時〜午後5時30分,http://www.city.osaka.lg.jp/suido/page/0000015040.html,,,,官公庁,市の機関,官公庁/市の機関,117,19204
135.546278,34.71783311,城北市民学習センター,しろきたしみんがくしゅうせんたー,城北市民学習センター（しろきたしみんがくしゅうせんたー）,旭区高殿6-14-6,旭区,06-6951-1324,06-6951-1304,,,http://osakademanabu.com/shirokita/,,,,官公庁,市の機関,官公庁/市の機関,146,1885
135.5052563,34.72594314,水道局柴島浄水場,すいどうきょくくにじまじょうすいじょう,水道局柴島浄水場（すいどうきょくくにじまじょうすいじょう）,東淀川区柴島1-3-14,東淀川区,06-6320-2874,06-6320-3261,水道及び工業用水道の取水・浄水・送水に関することや、浄水施設の維持管理など。,午前9時〜午後5時30分,http://www.city.osaka.lg.jp/suido/page/0000015195.html,,,,官公庁,市の機関,官公庁/市の機関,117,1386
135.5078959,34.72496231,水道局水質試験所,すいどうきょくすいしつしけんしょ,水道局水質試験所（すいどうきょくすいしつしけんしょ）,東淀川区柴島1-3-14(柴島浄水場内),東淀川区,06-6815-2365,06-6320-3259,水質試験や、浄水過程の調査及び研究など,午前9時〜午後5時30分,http://www.city.osaka.lg.jp/suido/page/0000015202.html,,,,官公庁,市の機関,官公庁/市の機関,117,19217
135.5485418,34.72063894,水道局大宮営業所,すいどうきょくおおみやえいぎょうしょ,水道局大宮営業所（すいどうきょくおおみやえいぎょうしょ）,旭区森小路1-10-5,旭区,06-6954-2242,06-6954-0891,(水道の補修・工事),,http://www.city.osaka.jp/suido/user/contact/eigyosho.html#3,,,,官公庁,市の機関,官公庁/市の機関,117,1898
135.5442582,34.72113583,旭区保健福祉センター（旭区役所内）,あさひくほけんふくしせんたー（あさひくやくしょない）,旭区保健福祉センター（旭区役所内）（あさひくほけんふくしせんたー（あさひくやくしょない））,旭区大宮1-1-17,旭区,,06-6952-3247,,,http://www.city.osaka.lg.jp/asahi/index.html,,,,官公庁,市の機関,官公庁/市の機関,135,1935
135.5443309,34.72124217,旭区役所,あさひくやくしょ,旭区役所（あさひくやくしょ）,旭区大宮1-1-17,旭区,06-6957-9986,06-6952-3247,,,http://www.city.osaka.lg.jp/asahi,http://www.osaka-bfmap.jp/sisetu_data/data/160101.php?bunrui=1&name=16.php,,,官公庁,市の機関,官公庁/市の機関,101,1936
135.5485627,34.72062047,水道局東部水道工事センター（大宮分室）,すいどうきょくとうぶすいどうこうじせんたー（おおみやぶんしつ）,水道局東部水道工事センター（大宮分室）（すいどうきょくとうぶすいどうこうじせんたー（おおみやぶんしつ））,旭区森小路1-10-5（大宮営業所内）,旭区,06-6954-2246　,06-6954-2253,給水装置の工事関係,午前9時〜午後5時30分,http://www.city.osaka.lg.jp/suido/page/0000015040.html,,,,官公庁,市の機関,官公庁/市の機関,117,19205
135.5496999,34.72311906,旭区保健福祉センター分館,あさひくほけんふくしせんたーぶんかん,旭区保健福祉センター分館（あさひくほけんふくしせんたーぶんかん）,旭区森小路2-5-26,旭区,,,,,,http://www.osaka-bfmap.jp/sisetu_data/data/160102.php?bunrui=1&name=16.php,,,官公庁,市の機関,官公庁/市の機関,135,902
135.5384223,34.72957189,城北公園事務所,しろきたこうえんじむしょ,城北公園事務所（しろきたこうえんじむしょ）,旭区生江3-29-1,旭区,06-6928-0005,06-6924-4209,,,http://www.ocsga.or.jp/osakapark/hfm_park/07shirokita/index.html,,,,官公庁,市の機関,官公庁/市の機関,154,1920
135.5759258,34.71027022,花博記念公園事務所,はなはくきねんこうえんじむしょ,花博記念公園事務所（はなはくきねんこうえんじむしょ）,鶴見区緑地公園2-163,鶴見区,06-6912-0650,06-6913-6804,鶴見緑地,,http://www.ocsga.or.jp/osakapark/hfm_park/01tsurumi/index.html,,,,官公庁,市の機関,官公庁/市の機関,154,3996
135.5843219,34.71855303,環境局城北環境事業センター,かんきょうきょくしろきたかんきょうじぎょうせんたー,環境局城北環境事業センター（かんきょうきょくしろきたかんきょうじぎょうせんたー）,鶴見区焼野2-11-1,鶴見区,06-6913-3960,06-6913-3674,ごみ,,http://www.city.osaka.lg.jp/kankyo/page/0000009995.html,,,,官公庁,市の機関,官公庁/市の機関,112,3997
135.5860251,34.71929694,環境局鶴見工場,かんきょうきょくつるみこうじょう,環境局鶴見工場（かんきょうきょくつるみこうじょう）,鶴見区焼野2-11-５,鶴見区,06-6912-4700,06-6913-5297,,,,,,,官公庁,市の機関,官公庁/市の機関,114,4120
135.5166666,34.73811886,東淀川区役所出張所,ひがしよどがわくやくしょしゅっちょうしょ,東淀川区役所出張所（ひがしよどがわくやくしょしゅっちょうしょ）,東淀川区東淡路4-15-1,東淀川区,06-6322-0731,06-6322-9399,,,,http://www.osaka-bfmap.jp/sisetu_data/data/130102.php?bunrui=1&name=13.php,,,官公庁,市の機関,官公庁/市の機関,101,649
135.5273609,34.74549689,環境局東北環境事業センター,かんきょうきょくとうほくかんきょうじぎょうせんたー,環境局東北環境事業センター（かんきょうきょくとうほくかんきょうじぎょうせんたー）,東淀川区上新庄1-2-20,東淀川区,06-6323-3511,06-6370-3951,(ごみの処理・美化推進等),,,,,,官公庁,市の機関,官公庁/市の機関,112,650
135.5293113,34.74134697,東淀川区役所,ひがしよどがわくやくしょ,東淀川区役所（ひがしよどがわくやくしょ）,東淀川区豊新2-1-4,東淀川区,06-4809-9986(案内),06-6327-1920,,,http://www.city.osaka.lg.jp/higashiyodogawa/index.html,http://www.osaka-bfmap.jp/sisetu_data/data/130101.php?bunrui=1&name=13.php,,,官公庁,市の機関,官公庁/市の機関,101,1385
135.5543258,34.75629994,環境局東淀工場,かんきょうきょくひがしよどこうじょう,環境局東淀工場（かんきょうきょくひがしよどこうじょう）,東淀川区南江口3-16-6,東淀川区,06-6327-4541,06-6327-4555,,,,,,,官公庁,市の機関,官公庁/市の機関,114,9010
135.5722836,34.74892953,水道局庭窪浄水場,すいどうきょくにわくぼじょうすいじょう,水道局庭窪浄水場（すいどうきょくにわくぼじょうすいじょう）,守口市淀江町11-31,大阪市以外,06-6908-0571,06-6908-6956,水道及び工業用水道の取水・浄水・送水に関することや、浄水施設の維持管理など。,午前9時〜午後5時30分,http://www.city.osaka.lg.jp/suido/page/0000015195.html,,,,官公庁,市の機関,官公庁/市の機関,117,19216
135.6427868,34.76011075,水道局豊野浄水場,すいどうきょくとよのじょうすいじょう,水道局豊野浄水場（すいどうきょくとよのじょうすいじょう）,寝屋川市太秦高塚町1-1,大阪市以外,072-823-2321,072-821-5348,水道及び工業用水道の取水・浄水・送水に関することや、浄水施設の維持管理など。,午前9時〜午後5時30分,http://www.city.osaka.lg.jp/suido/page/0000015195.html,,,,官公庁,市の機関,官公庁/市の機関,117,19215
135.4943134,34.63471603,西成保健福祉センター（西成区役所内）,,西成保健福祉センター（西成区役所内）（）,西成区岸里1丁目5番20号,西成区,06-6659-9080,,,,,,,,官公庁,市の機関,官公庁/市の機関,138,4827
135.5032141,34.61426706,交通局・自動車部（バス）・住吉営業所,,交通局・自動車部（バス）・住吉営業所（）,住吉区万代東3丁目5番22号,住吉区,06-6695-6151,06-6695-6368,,,http://www.kotsu.city.osaka.jp/eigyou/shisetsu/bus/bus_eigyousyo_list.html#eigyousyo7,,,,官公庁,市の機関,官公庁/市の機関,112,504
